{"type":"FeatureCollection","features":[{"type":"Feature","properties":{"civ":"sudan","from":2010,"to":2011.517808219178,"precision":1,"sourceId":"cshapes-global","sourceSha256":"384b1ea90b9419f30a858d7ec237c85a22c60d1b35b5f85f215a1204f9989d42","sourceStartDate":"1956-01-01","sourceEndDateInclusive":"2011-07-08","sourceProperties":{"cntry_name":"Sudan","area":2486940,"capname":"Khartoum","caplong":32.5342,"caplat":15.5881,"gwcode":625,"gwsdate":"31.12.1955 23:00:00","gwsyear":1956,"gwsmonth":1,"gwsday":1,"gwedate":"07.07.2011 22:00:00","gweyear":2011,"gwemonth":7,"gweday":8,"cap_geom":"SRID=4326;POINT (32.5341682434082 15.58806037902832)"},"reviewStatus":"pending_independent_review","dateEncoding":"decimal Gregorian year, Jan 1 = integer; exact dates retained","boundaryMeaning":"source-coded legal territory; disputed sectors not independently checked"},"geometry":{"type":"Polygon","coordinates":[[[36.890714,22.003972],[36.821936,22.001109],[36.728054,21.999445],[36.688327,21.998336],[36.545827,21.998609],[36.408609,21.998882],[36.297773,21.999164],[36.256382,21.999718],[36.024991,21.998882],[35.909436,21.998336],[35.781109,21.996945],[35.445,21.997773],[35.354436,21.999164],[35.153609,22.000554],[34.988609,22.001109],[34.967636,22.001109],[34.940282,22.001109],[34.892491,22.000554],[34.704163,21.997218],[34.663891,21.996109],[34.346245,21.995554],[34.107973,21.996277],[34.074436,21.996945],[33.954991,21.998882],[33.865,21.999445],[33.781391,21.999718],[33.760273,21.999718],[33.739718,21.999718],[33.4618,22.000273],[33.358054,22.000273],[33.173264,21.999155],[32.648045,22.001945],[32.521663,22.002773],[32.493891,22.003054],[32.473054,22.003609],[32.444445,22.004164],[32.388054,22.004164],[32.339718,22.004164],[31.996663,22.002773],[31.579163,21.999445],[31.4953,21.998336],[31.460273,21.998191],[31.466109,22.030827],[31.513818,22.159854],[31.508191,22.189718],[31.479027,22.221391],[31.448327,22.232218],[31.421663,22.227218],[31.395418,22.211382],[31.335,22.106109],[31.32,22.08],[31.2743,21.998745],[31.2075,21.998336],[31.165273,21.998336],[31.02646,21.998612],[30.74811,22.003046],[30.69099,22.00282],[30.598816,22.002398],[30.499152,22.001376],[30.463044,22.001321],[30.377493,22.001191],[30.263811,22.001004],[30.101108,22.000648],[29.611946,21.998007],[29.527219,21.997438],[29.250515,21.995457],[29.178054,21.995525],[29.156391,21.995544],[29.135273,21.995562],[29.113609,21.995581],[29.092783,21.995599],[29.070828,21.995618],[29.013337,21.99592],[28.596665,21.99962],[28.469551,22.001137],[28.319164,22.002709],[28.261111,22.003445],[28.222775,22.003161],[27.724165,21.999271],[27.412218,21.994463],[27.386663,21.994188],[27.364089,21.994856],[27.327218,21.99597],[27.267773,21.997765],[27.13806,21.998859],[27.09306,21.998639],[26.971667,21.997611],[26.914445,21.996482],[26.838054,21.995206],[26.674718,21.99597],[26.648608,21.996316],[26.612354,21.996673],[26.339718,21.999718],[25.778609,22.0025],[25.407292,21.999983],[25.216391,22.001109],[25.099163,22.000827],[25.001418,21.999691],[25.001127,21.0103],[25.000518,19.999114],[24.9825,19.999445],[24.763609,20.000273],[24.634445,20],[24.577218,19.999164],[24.455827,19.996945],[24.154445,20.000554],[24.043327,20.002218],[24.005827,19.998818],[24.000273,19.906391],[24.001859,19.506614],[23.999718,19.465827],[23.999445,19.432782],[23.999163,18.832773],[23.999809,18.7543],[23.999163,18.5325],[23.999163,18.299445],[23.999163,18.220685],[23.999163,16.266109],[24,16.132773],[24,15.832773],[23.997563,15.702845],[23.973191,15.697918],[23.951109,15.705554],[23.865,15.730554],[23.800418,15.747918],[23.663327,15.7575],[23.603054,15.7575],[23.564163,15.749718],[23.531663,15.741664],[23.479163,15.725827],[23.460136,15.716809],[23.433891,15.700836],[23.409027,15.690836],[23.381382,15.685],[23.356945,15.681664],[23.329718,15.683609],[23.305554,15.686945],[23.244445,15.701109],[23.170273,15.710554],[23.143609,15.711109],[23.113382,15.708341],[22.937218,15.561945],[22.923336,15.540136],[22.919582,15.515691],[22.923054,15.487218],[22.935418,15.464718],[22.982709,15.414236],[22.997154,15.371318],[22.997218,15.335836],[22.991391,15.283336],[22.984718,15.231109],[22.978745,15.207918],[22.929373,15.114027],[22.892773,15.104718],[22.872773,15.096945],[22.845691,15.074864],[22.786109,15.015],[22.753327,14.976945],[22.669163,14.853745],[22.669582,14.814027],[22.679863,14.758054],[22.699927,14.7041],[22.5,14.637436],[22.47,14.629445],[22.416109,14.600273],[22.398609,14.586245],[22.386527,14.562636],[22.384718,14.5251],[22.438191,14.492773],[22.446109,14.473745],[22.449163,14.379164],[22.449445,14.33],[22.511663,14.240273],[22.553745,14.229027],[22.5668,14.167218],[22.556182,14.129791],[22.434445,14.051664],[22.370827,14.028891],[22.317082,14.010691],[22.2343,13.965554],[22.198327,13.9225],[22.084445,13.779164],[22.136109,13.665],[22.2275,13.495554],[22.294654,13.372709],[22.285,13.340554],[22.269445,13.320836],[22.153054,13.186527],[22.0675,13.148609],[22.025,13.140273],[21.942082,13.051245],[21.891945,12.954445],[21.8291,12.7972],[21.888473,12.693054],[21.906945,12.669445],[21.925554,12.656109],[21.952773,12.643891],[21.977218,12.638609],[22.004718,12.636391],[22.05,12.6375],[22.074445,12.64],[22.119854,12.648609],[22.145273,12.657364],[22.161945,12.668745],[22.199718,12.715554],[22.223327,12.747218],[22.331663,12.673336],[22.4643,12.614864],[22.407636,12.485136],[22.439027,12.347218],[22.503327,12.165836],[22.563609,12.074718],[22.611382,11.992773],[22.597773,11.926664],[22.572773,11.799164],[22.553191,11.665973],[22.559027,11.629027],[22.575273,11.601945],[22.613327,11.550554],[22.625554,11.534445],[22.648327,11.511809],[22.790273,11.429445],[22.933191,11.408745],[22.971391,11.280273],[22.974091,11.209791],[22.893609,10.976945],[22.8665,10.922445],[22.88,10.899718],[22.901391,10.865554],[22.944163,10.798054],[23.009445,10.698609],[23.060273,10.664445],[23.309445,10.451664],[23.323891,10.43],[23.536663,10.083609],[23.669163,9.866945],[23.693891,9.668054],[23.660273,9.597773],[23.649436,9.579164],[23.626036,9.542845],[23.642009,9.443127],[23.664718,9.434718],[23.6493,9.275973],[23.564445,9.187218],[23.539027,9.179445],[23.499645,9.177218],[23.475832,9.137496],[23.448327,9.019582],[23.457918,8.990836],[23.4893,8.966245],[23.509863,8.958327],[23.532218,8.961109],[23.561182,9.000554],[23.581663,8.993745],[23.582636,8.912218],[23.562773,8.868609],[23.536527,8.8316],[23.508054,8.808054],[23.497636,8.7718],[23.529654,8.708336],[23.5575,8.704445],[23.739163,8.705273],[23.763745,8.714582],[23.781945,8.723336],[23.823891,8.727782],[23.925827,8.718054],[24.015554,8.703891],[24.051873,8.693745],[24.086936,8.688327],[24.141182,8.686736],[24.174463,8.695891],[24.201109,8.686945],[24.240269,8.629011],[24.268327,8.5875],[24.241391,8.562218],[24.201945,8.526109],[24.163609,8.473054],[24.140273,8.375827],[24.153327,8.349164],[24.162773,8.330554],[24.184854,8.309864],[24.21,8.293054],[24.230554,8.284445],[24.253054,8.278327],[24.336936,8.262782],[24.479718,8.238054],[24.627636,8.220273],[24.66,8.218609],[24.721663,8.209718],[24.804445,8.192782],[24.843891,8.175554],[24.870136,8.160973],[24.938609,8.088609],[24.9475,8.067082],[24.943882,8.041391],[24.970273,8.003336],[25.017773,7.955282],[25.053891,7.921109],[25.084718,7.894864],[25.111736,7.891245],[25.139445,7.897782],[25.186109,7.901945],[25.225554,7.872773],[25.255827,7.845691],[25.287218,7.778891],[25.2993,7.682918],[25.293745,7.645418],[25.267709,7.626736],[25.243891,7.623336],[25.194718,7.595973],[25.182636,7.577918],[25.200273,7.516391],[25.221454,7.494309],[25.267773,7.475282],[25.335,7.420554],[25.3468,7.401391],[25.352082,7.372009],[25.369863,7.343891],[25.455,7.297782],[25.623891,7.211109],[25.729718,7.168054],[25.850273,7.109445],[25.984445,7.018336],[26.047773,6.963891],[26.052218,6.932782],[26.064163,6.903054],[26.097636,6.845691],[26.119163,6.826109],[26.270418,6.705973],[26.3159,6.700136],[26.360836,6.683336],[26.405155,6.639636],[26.366109,6.583336],[26.313609,6.496391],[26.298054,6.465554],[26.304373,6.39],[26.3725,6.346391],[26.454854,6.297782],[26.525418,6.216245],[26.528473,6.192364],[26.518745,6.169445],[26.5,6.156527],[26.463536,6.130973],[26.442773,6.102218],[26.442291,6.077427],[26.565282,6.028336],[26.612218,6.014445],[26.668891,6.007218],[26.6975,6.0175],[26.735554,6.009164],[26.812909,5.977636],[26.824027,5.960418],[26.828327,5.914445],[26.852982,5.891391],[26.923882,5.865554],[26.981663,5.859445],[27.110273,5.791109],[27.142773,5.771945],[27.201945,5.708609],[27.240836,5.647782],[27.278891,5.583891],[27.279863,5.544582],[27.257427,5.509509],[27.236318,5.426454],[27.254718,5.331391],[27.275,5.2825],[27.297782,5.230973],[27.320273,5.208336],[27.365418,5.170554],[27.400827,5.150345],[27.459718,5.0716],[27.455163,5.021075],[27.524436,4.943609],[27.660209,4.896182],[27.768891,4.787773],[27.782909,4.7575],[27.777709,4.6974],[27.771663,4.666109],[27.789445,4.600136],[27.865273,4.557082],[27.901948,4.553683],[27.929718,4.551109],[28.028054,4.502218],[28.084445,4.432782],[28.201109,4.347845],[28.363054,4.29],[28.477218,4.330836],[28.488327,4.35],[28.505836,4.373054],[28.584718,4.401945],[28.633473,4.416809],[28.6525,4.425418],[28.672773,4.455836],[28.687773,4.484582],[28.6934,4.510973],[28.7125,4.5375],[28.7825,4.557364],[28.803609,4.5191],[28.802909,4.497082],[28.827427,4.482709],[28.890273,4.477782],[28.977218,4.483818],[29.011454,4.496982],[29.131382,4.412218],[29.159445,4.386109],[29.210273,4.342082],[29.243609,4.346109],[29.325,4.39],[29.376875,4.455241],[29.432782,4.525554],[29.464163,4.591945],[29.466527,4.634718],[29.467773,4.663891],[29.494236,4.683536],[29.614718,4.656109],[29.643327,4.643609],[29.698609,4.6175],[29.813536,4.559027],[29.806391,4.496109],[29.8,4.468891],[29.7925,4.433054],[29.799163,4.375345],[29.838745,4.346873],[29.959445,4.291391],[29.987782,4.233891],[30.0618,4.131391],[30.079718,4.122364],[30.119509,4.116809],[30.148054,4.099582],[30.166663,4.039718],[30.207773,3.961664],[30.243054,3.955282],[30.275209,3.959309],[30.336109,3.940282],[30.361382,3.925282],[30.434718,3.885836],[30.494445,3.865073],[30.527218,3.873054],[30.551036,3.863818],[30.581663,3.700136],[30.581391,3.668891],[30.575136,3.641664],[30.562009,3.613264],[30.591873,3.604927],[30.631109,3.611109],[30.735209,3.637782],[30.786391,3.66],[30.847218,3.528336],[30.858818,3.493391],[30.868536,3.522573],[30.891391,3.565554],[30.954718,3.671109],[30.979163,3.694445],[31.176663,3.795282],[31.203891,3.795836],[31.286663,3.795],[31.377218,3.745554],[31.459718,3.698891],[31.540836,3.653609],[31.704027,3.714445],[31.748609,3.761391],[31.789445,3.808745],[31.821663,3.806945],[31.853473,3.784718],[31.932082,3.689164],[31.946391,3.621664],[31.951109,3.593891],[32.025836,3.591391],[32.068491,3.582218],[32.077082,3.559027],[32.090409,3.536109],[32.111245,3.526664],[32.135827,3.521109],[32.194527,3.512754],[32.200827,3.575036],[32.199773,3.609727],[32.231972,3.630789],[32.404445,3.743609],[32.479163,3.745836],[32.635273,3.751945],[32.669163,3.753336],[32.719445,3.755836],[32.800282,3.780554],[32.874718,3.803891],[32.898045,3.811945],[32.938327,3.837218],[32.978609,3.863336],[33.016663,3.888609],[33.127218,3.808336],[33.183882,3.766109],[33.245,3.764164],[33.387773,3.758054],[33.517423,3.755587],[33.996663,4.222782],[34.096109,4.320554],[34.374163,4.596664],[34.388191,4.609682],[34.407773,4.610554],[34.482218,4.611109],[34.713054,4.612218],[34.773891,4.6125],[34.821391,4.612218],[34.950273,4.612782],[35.146945,4.613891],[35.508882,4.616736],[35.546945,4.616664],[35.580827,4.616945],[35.608454,4.617745],[35.641936,4.617218],[35.675827,4.6175],[35.701688,4.618336],[35.807993,4.618779],[35.899718,4.619718],[35.932871,4.621977],[35.924718,4.640273],[35.774436,4.798609],[35.779991,5.082636],[35.802773,5.105273],[35.823609,5.136664],[35.830691,5.1684],[35.805136,5.206809],[35.796245,5.235136],[35.798745,5.265554],[35.821663,5.328609],[35.796945,5.331109],[35.774991,5.337218],[35.753745,5.346945],[35.726245,5.364445],[35.527918,5.426809],[35.504718,5.431391],[35.443709,5.425518],[35.419091,5.3984],[35.352845,5.350691],[35.326245,5.357082],[35.303054,5.377364],[35.270418,5.438336],[35.277082,5.458054],[35.2927,5.487636],[35.289991,5.507782],[35.103882,5.6325],[35.105409,5.688336],[35.028327,5.814164],[34.997818,5.860635],[34.986382,5.878054],[34.975827,5.964718],[34.989386,6.00799],[34.981382,6.061109],[34.969718,6.086527],[34.952218,6.103473],[34.922427,6.132291],[34.870554,6.2375],[34.8593,6.267218],[34.856382,6.291109],[34.85,6.366664],[34.756991,6.613782],[34.704718,6.677782],[34.679163,6.7],[34.654718,6.716664],[34.632082,6.729027],[34.602773,6.734718],[34.553609,6.735691],[34.528818,6.747218],[34.486973,6.877491],[34.4718,6.914309],[34.430954,6.935409],[34.360963,6.959027],[34.328745,6.958745],[34.299573,6.964327],[34.280554,6.975836],[34.235691,7.019718],[34.223609,7.0425],[34.193882,7.09],[34.163327,7.171664],[34.099163,7.199718],[34.027082,7.248127],[34.029745,7.280036],[34.032773,7.304445],[34.027709,7.378673],[33.885554,7.525418],[33.712491,7.658473],[33.647218,7.685],[33.464445,7.744027],[33.439163,7.744445],[33.2575,7.763609],[33.096663,7.781109],[33.052218,7.790691],[33.014973,7.846064],[32.996827,7.887218],[32.9918,7.926045],[33.031945,7.997391],[33.121382,8.100973],[33.162773,8.115],[33.185918,8.140291],[33.178054,8.2225],[33.165836,8.278327],[33.160827,8.356527],[33.171245,8.399791],[33.263536,8.461527],[33.326736,8.453682],[33.380827,8.437918],[33.508609,8.4662],[33.634373,8.467154],[33.669991,8.437082],[33.690482,8.395482],[33.715273,8.375064],[33.771327,8.367745],[33.789718,8.384445],[33.818745,8.411527],[33.852491,8.425836],[33.881527,8.430836],[33.915273,8.430554],[33.970754,8.437564],[34.002218,8.460282],[34.070827,8.523336],[34.105545,8.557782],[34.122232,8.582114],[34.1236,8.634164],[34.13,8.805827],[34.134991,8.955273],[34.100554,9.385273],[34.097773,9.419718],[34.094577,9.454305],[34.092234,9.477474],[34.085827,9.553054],[34.14,9.758054],[34.207218,9.905],[34.219718,9.973609],[34.230554,10.027636],[34.323054,10.117218],[34.348327,10.238473],[34.341945,10.280836],[34.328045,10.35],[34.286109,10.554164],[34.314718,10.586391],[34.352773,10.631664],[34.439718,10.784445],[34.594445,10.887782],[34.673882,10.834718],[34.710827,10.802218],[34.769863,10.749445],[34.800554,10.723327],[34.860618,10.732009],[34.975273,10.864445],[34.978609,10.915273],[34.933327,10.956664],[34.9836,11.110282],[34.997612,11.151232],[35.005554,11.174445],[35.0075,11.198327],[34.974996,11.2275],[34.964163,11.250418],[34.967082,11.274864],[34.986382,11.318336],[35.004436,11.348891],[35.013327,11.367773],[35.087491,11.535827],[35.0952,11.576454],[35.091663,11.598891],[35.078191,11.623473],[35.0668,11.646527],[35.058327,11.730273],[35.063191,11.759582],[35.083609,11.805554],[35.102354,11.834445],[35.116245,11.850836],[35.134436,11.863891],[35.168327,11.878336],[35.201663,11.886391],[35.231382,11.898191],[35.253609,11.9175],[35.265436,11.933609],[35.283882,11.983327],[35.383609,12.165554],[35.647354,12.591527],[35.686245,12.602218],[35.700136,12.625],[35.701082,12.666118],[35.964718,12.715554],[36.012636,12.720554],[36.037218,12.715],[36.072291,12.7241],[36.0934,12.706391],[36.111936,12.694027],[36.142545,12.714854],[36.159163,12.881391],[36.135345,12.925418],[36.142082,12.952773],[36.151109,12.971664],[36.168882,12.99],[36.157354,13.033054],[36.2486,13.368054],[36.348882,13.502773],[36.362218,13.519445],[36.3975,13.567782],[36.408745,13.595136],[36.411382,13.615554],[36.407354,13.635273],[36.409027,13.6575],[36.421036,13.686873],[36.471109,13.804164],[36.486936,13.839445],[36.446391,13.956945],[36.539445,14.246109],[36.542241,14.270054],[36.515545,14.450282],[36.452218,15.068609],[36.443282,15.149954],[36.479718,15.180273],[36.542773,15.234718],[36.565554,15.302773],[36.610545,15.437218],[36.626109,15.489445],[36.671663,15.659164],[36.696245,15.748609],[36.763609,15.808054],[36.826109,15.9775],[36.889445,16.146664],[36.924718,16.227082],[36.966873,16.259927],[36.973882,16.285554],[36.952836,16.433609],[36.928054,16.459445],[36.902773,16.493609],[36.896663,16.514718],[36.898327,16.536945],[36.914027,16.644445],[36.9393,16.677636],[36.972636,16.7],[36.988882,16.725554],[37.008954,16.786318],[37.013054,17.022427],[36.993809,17.064891],[37.026109,17.077218],[37.108327,17.047918],[37.147773,17.017009],[37.257354,17.026945],[37.381382,17.043054],[37.423291,17.034209],[37.486109,17.110554],[37.520573,17.1958],[37.530691,17.249427],[37.520273,17.277773],[37.512073,17.321182],[37.588745,17.350136],[37.623054,17.3575],[37.744718,17.381945],[37.895554,17.441391],[37.933882,17.458609],[37.966527,17.499718],[38.034718,17.541664],[38.058745,17.5525],[38.092254,17.543227],[38.135554,17.498882],[38.2575,17.532773],[38.369163,17.664445],[38.449163,17.851109],[38.458609,17.871109],[38.505827,17.913327],[38.604096,18.002855],[38.589027,18.0668],[38.589027,18.0668],[38.586254,18.071149],[38.575827,18.0875],[38.546245,18.107218],[38.468041,18.127206],[38.439718,18.134445],[38.408388,18.158005],[38.369163,18.1875],[38.323931,18.203817],[38.271382,18.222773],[38.229833,18.231935],[38.189509,18.240827],[38.1525,18.259164],[38.145088,18.264165],[38.118327,18.282218],[38.10322,18.295362],[38.089436,18.307354],[38.089436,18.307354],[38.089436,18.307354],[38.101391,18.344864],[38.083616,18.374166],[38.051936,18.426391],[38.034141,18.450048],[38.004718,18.489164],[37.987625,18.507685],[37.978054,18.518054],[37.950273,18.540691],[37.896518,18.5725],[37.828891,18.600827],[37.785401,18.642327],[37.761936,18.664718],[37.763613,18.673094],[37.768054,18.695273],[37.750545,18.706391],[37.718862,18.711619],[37.680691,18.717918],[37.661719,18.71343],[37.642491,18.708882],[37.594718,18.708882],[37.553054,18.71],[37.516391,18.724445],[37.456502,18.82051],[37.435691,18.853891],[37.355554,19.086391],[37.354962,19.088417],[37.336391,19.151945],[37.321391,19.241945],[37.311945,19.3],[37.308327,19.358609],[37.306936,19.395691],[37.290273,19.475],[37.267636,19.5275],[37.241591,19.564582],[37.240273,19.664864],[37.240273,19.664864],[37.257636,19.687909],[37.265827,19.731664],[37.265273,19.762773],[37.257218,19.833882],[37.242773,19.864718],[37.23391,19.882761],[37.227491,19.895827],[37.225821,19.899777],[37.218327,19.9175],[37.185827,20.013473],[37.181701,20.114324],[37.177354,20.220554],[37.178854,20.276369],[37.180273,20.329164],[37.184718,20.401945],[37.200827,20.458054],[37.202051,20.458445],[37.226936,20.466391],[37.228191,20.556391],[37.223833,20.571332],[37.207773,20.626391],[37.184863,20.681527],[37.176391,20.692881],[37.171391,20.699582],[37.164163,20.796109],[37.1375,20.968054],[37.093818,21.169091],[37.093818,21.169091],[37.093818,21.169091],[37.094687,21.172691],[37.103191,21.207918],[37.153754,21.1953],[37.230273,21.129164],[37.247241,21.091087],[37.264209,21.053009],[37.264209,21.053009],[37.264209,21.053009],[37.259945,21.054354],[37.237636,21.061391],[37.237636,21.061391],[37.237636,21.061391],[37.236617,21.062695],[37.223745,21.079164],[37.205027,21.090685],[37.199373,21.094164],[37.209524,21.067477],[37.225418,21.025691],[37.2475,21.001664],[37.305691,21.017291],[37.305702,21.017845],[37.306591,21.063264],[37.266391,21.126109],[37.233327,21.166527],[37.200827,21.200554],[37.174531,21.222831],[37.163773,21.231945],[37.143609,21.248273],[37.127166,21.264225],[37.098882,21.291664],[37.069163,21.330827],[37.000273,21.431245],[36.911382,21.608609],[36.899991,21.637218],[36.874163,21.786945],[36.854163,21.971664],[36.854163,21.971664],[36.854163,21.971664],[36.854163,21.971664],[36.890714,22.003972]]]}},{"type":"Feature","properties":{"civ":"south-sudan","from":2011.517808219178,"to":2020,"precision":1,"sourceId":"cshapes-global","sourceSha256":"384b1ea90b9419f30a858d7ec237c85a22c60d1b35b5f85f215a1204f9989d42","sourceStartDate":"2011-07-09","sourceEndDateInclusive":"2019-12-31","sourceProperties":{"cntry_name":"South Sudan","area":627325,"capname":"Juba","caplong":31.6,"caplat":4.85,"gwcode":626,"gwsdate":"08.07.2011 22:00:00","gwsyear":2011,"gwsmonth":7,"gwsday":9,"gwedate":"30.12.2019 23:00:00","gweyear":2019,"gwemonth":12,"gweday":31,"cap_geom":"SRID=4326;POINT (31.600000381469727 4.849999904632568)"},"reviewStatus":"pending_independent_review","dateEncoding":"decimal Gregorian year, Jan 1 = integer; exact dates retained","boundaryMeaning":"source-coded legal territory; disputed sectors not independently checked"},"geometry":{"type":"Polygon","coordinates":[[[34.092234,9.477474],[33.90162,9.481212],[33.89041,9.593313],[33.918435,9.733439],[33.980091,9.78949],[33.991301,10.024902],[33.968881,10.058533],[33.952065,10.137003],[33.89041,10.137003],[33.795124,10.305155],[33.699838,10.366811],[33.475636,10.630248],[33.229013,10.703114],[33.273854,10.80961],[33.128122,11.577503],[33.189778,11.695209],[33.195383,11.78489],[33.257039,12.081958],[33.301879,12.171639],[32.730163,12.177244],[32.769399,12.059537],[32.758189,11.891386],[32.124817,11.896991],[32.41628,11.633553],[32.40507,11.151519],[32.472331,11.011392],[32.208893,10.731139],[32.012716,10.602223],[31.805329,10.249105],[31.676413,10.142609],[31.441001,9.839936],[31.272849,9.705414],[30.930941,9.705414],[30.846865,9.671784],[30.549797,9.912801],[30.129418,10.187449],[29.983686,10.25471],[29.574517,10.030507],[29.563307,9.711019],[29.114903,9.722229],[28.83465,9.458792],[28.801019,9.397136],[28.789809,9.31306],[28.072362,9.318665],[27.943446,9.576498],[27.612748,9.576498],[27.38294,9.598918],[27.141923,9.587708],[26.928931,9.531657],[26.771989,9.458792],[26.441291,9.542868],[26.357215,9.621338],[26.250719,9.895986],[26.183459,9.963247],[26.082568,10.125793],[25.987282,10.170634],[25.992887,10.366811],[25.908811,10.417256],[25.499642,10.355601],[25.185759,10.33318],[25.090473,10.181844],[25.118498,10.125793],[24.955951,9.907196],[24.883086,9.806305],[24.782195,9.76707],[24.79901,9.615733],[24.7878,9.498027],[24.647673,9.391531],[24.670094,9.329875],[24.608438,9.223379],[24.586018,9.083253],[24.619648,8.971152],[24.569203,8.864656],[24.412261,8.797395],[24.283345,8.679689],[24.240269,8.629011],[24.268327,8.5875],[24.241391,8.562218],[24.201945,8.526109],[24.163609,8.473054],[24.140273,8.375827],[24.153327,8.349164],[24.162773,8.330554],[24.184854,8.309864],[24.21,8.293054],[24.230554,8.284445],[24.253054,8.278327],[24.336936,8.262782],[24.479718,8.238054],[24.627636,8.220273],[24.66,8.218609],[24.721663,8.209718],[24.804445,8.192782],[24.843891,8.175554],[24.870136,8.160973],[24.938609,8.088609],[24.9475,8.067082],[24.943882,8.041391],[24.970273,8.003336],[25.017773,7.955282],[25.053891,7.921109],[25.084718,7.894864],[25.111736,7.891245],[25.139445,7.897782],[25.186109,7.901945],[25.225554,7.872773],[25.255827,7.845691],[25.287218,7.778891],[25.2993,7.682918],[25.293745,7.645418],[25.267709,7.626736],[25.243891,7.623336],[25.194718,7.595973],[25.182636,7.577918],[25.200273,7.516391],[25.221454,7.494309],[25.267773,7.475282],[25.335,7.420554],[25.3468,7.401391],[25.352082,7.372009],[25.369863,7.343891],[25.455,7.297782],[25.623891,7.211109],[25.729718,7.168054],[25.850273,7.109445],[25.984445,7.018336],[26.047773,6.963891],[26.052218,6.932782],[26.064163,6.903054],[26.097636,6.845691],[26.119163,6.826109],[26.270418,6.705973],[26.3159,6.700136],[26.360836,6.683336],[26.405155,6.639636],[26.366109,6.583336],[26.313609,6.496391],[26.298054,6.465554],[26.304373,6.39],[26.3725,6.346391],[26.454854,6.297782],[26.525418,6.216245],[26.528473,6.192364],[26.518745,6.169445],[26.5,6.156527],[26.463536,6.130973],[26.442773,6.102218],[26.442291,6.077427],[26.565282,6.028336],[26.612218,6.014445],[26.668891,6.007218],[26.6975,6.0175],[26.735554,6.009164],[26.812909,5.977636],[26.824027,5.960418],[26.828327,5.914445],[26.852982,5.891391],[26.923882,5.865554],[26.981663,5.859445],[27.110273,5.791109],[27.142773,5.771945],[27.201945,5.708609],[27.240836,5.647782],[27.278891,5.583891],[27.279863,5.544582],[27.257427,5.509509],[27.236318,5.426454],[27.254718,5.331391],[27.275,5.2825],[27.297782,5.230973],[27.320273,5.208336],[27.365418,5.170554],[27.400827,5.150345],[27.459718,5.0716],[27.455163,5.021075],[27.524436,4.943609],[27.660209,4.896182],[27.768891,4.787773],[27.782909,4.7575],[27.777709,4.6974],[27.771663,4.666109],[27.789445,4.600136],[27.865273,4.557082],[27.901948,4.553683],[27.929718,4.551109],[28.028054,4.502218],[28.084445,4.432782],[28.201109,4.347845],[28.363054,4.29],[28.477218,4.330836],[28.488327,4.35],[28.505836,4.373054],[28.584718,4.401945],[28.633473,4.416809],[28.6525,4.425418],[28.672773,4.455836],[28.687773,4.484582],[28.6934,4.510973],[28.7125,4.5375],[28.7825,4.557364],[28.803609,4.5191],[28.802909,4.497082],[28.827427,4.482709],[28.890273,4.477782],[28.977218,4.483818],[29.011454,4.496982],[29.131382,4.412218],[29.159445,4.386109],[29.210273,4.342082],[29.243609,4.346109],[29.325,4.39],[29.376875,4.455241],[29.432782,4.525554],[29.464163,4.591945],[29.466527,4.634718],[29.467773,4.663891],[29.494236,4.683536],[29.614718,4.656109],[29.643327,4.643609],[29.698609,4.6175],[29.813536,4.559027],[29.806391,4.496109],[29.8,4.468891],[29.7925,4.433054],[29.799163,4.375345],[29.838745,4.346873],[29.959445,4.291391],[29.987782,4.233891],[30.0618,4.131391],[30.079718,4.122364],[30.119509,4.116809],[30.148054,4.099582],[30.166663,4.039718],[30.207773,3.961664],[30.243054,3.955282],[30.275209,3.959309],[30.336109,3.940282],[30.361382,3.925282],[30.434718,3.885836],[30.494445,3.865073],[30.527218,3.873054],[30.551036,3.863818],[30.581663,3.700136],[30.581391,3.668891],[30.575136,3.641664],[30.562009,3.613264],[30.591873,3.604927],[30.631109,3.611109],[30.735209,3.637782],[30.786391,3.66],[30.847218,3.528336],[30.858818,3.493391],[30.868536,3.522573],[30.891391,3.565554],[30.954718,3.671109],[30.979163,3.694445],[31.176663,3.795282],[31.203891,3.795836],[31.286663,3.795],[31.377218,3.745554],[31.459718,3.698891],[31.540836,3.653609],[31.704027,3.714445],[31.748609,3.761391],[31.789445,3.808745],[31.821663,3.806945],[31.853473,3.784718],[31.932082,3.689164],[31.946391,3.621664],[31.951109,3.593891],[32.025836,3.591391],[32.068491,3.582218],[32.077082,3.559027],[32.090409,3.536109],[32.111245,3.526664],[32.135827,3.521109],[32.194527,3.512754],[32.200827,3.575036],[32.199773,3.609727],[32.231972,3.630789],[32.404445,3.743609],[32.479163,3.745836],[32.635273,3.751945],[32.669163,3.753336],[32.719445,3.755836],[32.800282,3.780554],[32.874718,3.803891],[32.898045,3.811945],[32.938327,3.837218],[32.978609,3.863336],[33.016663,3.888609],[33.127218,3.808336],[33.183882,3.766109],[33.245,3.764164],[33.387773,3.758054],[33.517423,3.755587],[33.996663,4.222782],[34.096109,4.320554],[34.374163,4.596664],[34.388191,4.609682],[34.407773,4.610554],[34.482218,4.611109],[34.713054,4.612218],[34.773891,4.6125],[34.821391,4.612218],[34.950273,4.612782],[35.146945,4.613891],[35.508882,4.616736],[35.546945,4.616664],[35.580827,4.616945],[35.608454,4.617745],[35.641936,4.617218],[35.675827,4.6175],[35.701688,4.618336],[35.807993,4.618779],[35.899718,4.619718],[35.932871,4.621977],[35.924718,4.640273],[35.774436,4.798609],[35.779991,5.082636],[35.802773,5.105273],[35.823609,5.136664],[35.830691,5.1684],[35.805136,5.206809],[35.796245,5.235136],[35.798745,5.265554],[35.821663,5.328609],[35.796945,5.331109],[35.774991,5.337218],[35.753745,5.346945],[35.726245,5.364445],[35.527918,5.426809],[35.504718,5.431391],[35.443709,5.425518],[35.419091,5.3984],[35.352845,5.350691],[35.326245,5.357082],[35.303054,5.377364],[35.270418,5.438336],[35.277082,5.458054],[35.2927,5.487636],[35.289991,5.507782],[35.103882,5.6325],[35.105409,5.688336],[35.028327,5.814164],[34.997818,5.860635],[34.986382,5.878054],[34.975827,5.964718],[34.989386,6.00799],[34.981382,6.061109],[34.969718,6.086527],[34.952218,6.103473],[34.922427,6.132291],[34.870554,6.2375],[34.8593,6.267218],[34.856382,6.291109],[34.85,6.366664],[34.756991,6.613782],[34.704718,6.677782],[34.679163,6.7],[34.654718,6.716664],[34.632082,6.729027],[34.602773,6.734718],[34.553609,6.735691],[34.528818,6.747218],[34.486973,6.877491],[34.4718,6.914309],[34.430954,6.935409],[34.360963,6.959027],[34.328745,6.958745],[34.299573,6.964327],[34.280554,6.975836],[34.235691,7.019718],[34.223609,7.0425],[34.193882,7.09],[34.163327,7.171664],[34.099163,7.199718],[34.027082,7.248127],[34.029745,7.280036],[34.032773,7.304445],[34.027709,7.378673],[33.885554,7.525418],[33.712491,7.658473],[33.647218,7.685],[33.464445,7.744027],[33.439163,7.744445],[33.2575,7.763609],[33.096663,7.781109],[33.052218,7.790691],[33.014973,7.846064],[32.996827,7.887218],[32.9918,7.926045],[33.031945,7.997391],[33.121382,8.100973],[33.162773,8.115],[33.185918,8.140291],[33.178054,8.2225],[33.165836,8.278327],[33.160827,8.356527],[33.171245,8.399791],[33.263536,8.461527],[33.326736,8.453682],[33.380827,8.437918],[33.508609,8.4662],[33.634373,8.467154],[33.669991,8.437082],[33.690482,8.395482],[33.715273,8.375064],[33.771327,8.367745],[33.789718,8.384445],[33.818745,8.411527],[33.852491,8.425836],[33.881527,8.430836],[33.915273,8.430554],[33.970754,8.437564],[34.002218,8.460282],[34.070827,8.523336],[34.105545,8.557782],[34.122232,8.582114],[34.1236,8.634164],[34.13,8.805827],[34.134991,8.955273],[34.100554,9.385273],[34.097773,9.419718],[34.094577,9.454305],[34.092234,9.477474]]]}},{"type":"Feature","properties":{"civ":"sudan","from":2011.517808219178,"to":2020,"precision":1,"sourceId":"cshapes-global","sourceSha256":"384b1ea90b9419f30a858d7ec237c85a22c60d1b35b5f85f215a1204f9989d42","sourceStartDate":"2011-07-09","sourceEndDateInclusive":"2019-12-31","sourceProperties":{"cntry_name":"Sudan","area":1859620,"capname":"Khartoum","caplong":32.5342,"caplat":15.5881,"gwcode":625,"gwsdate":"08.07.2011 22:00:00","gwsyear":2011,"gwsmonth":7,"gwsday":9,"gwedate":"30.12.2019 23:00:00","gweyear":2019,"gwemonth":12,"gweday":31,"cap_geom":"SRID=4326;POINT (32.5341682434082 15.58806037902832)"},"reviewStatus":"pending_independent_review","dateEncoding":"decimal Gregorian year, Jan 1 = integer; exact dates retained","boundaryMeaning":"source-coded legal territory; disputed sectors not independently checked"},"geometry":{"type":"Polygon","coordinates":[[[36.890714,22.003972],[36.821936,22.001109],[36.728054,21.999445],[36.688327,21.998336],[36.545827,21.998609],[36.408609,21.998882],[36.297773,21.999164],[36.256382,21.999718],[36.024991,21.998882],[35.909436,21.998336],[35.781109,21.996945],[35.445,21.997773],[35.354436,21.999164],[35.153609,22.000554],[34.988609,22.001109],[34.967636,22.001109],[34.940282,22.001109],[34.892491,22.000554],[34.704163,21.997218],[34.663891,21.996109],[34.346245,21.995554],[34.107973,21.996277],[34.074436,21.996945],[33.954991,21.998882],[33.865,21.999445],[33.781391,21.999718],[33.760273,21.999718],[33.739718,21.999718],[33.4618,22.000273],[33.358054,22.000273],[33.173264,21.999155],[32.648045,22.001945],[32.521663,22.002773],[32.493891,22.003054],[32.473054,22.003609],[32.444445,22.004164],[32.388054,22.004164],[32.339718,22.004164],[31.996663,22.002773],[31.579163,21.999445],[31.4953,21.998336],[31.460273,21.998191],[31.466109,22.030827],[31.513818,22.159854],[31.508191,22.189718],[31.479027,22.221391],[31.448327,22.232218],[31.421663,22.227218],[31.395418,22.211382],[31.335,22.106109],[31.32,22.08],[31.2743,21.998745],[31.2075,21.998336],[31.165273,21.998336],[31.02646,21.998612],[30.74811,22.003046],[30.69099,22.00282],[30.598816,22.002398],[30.499152,22.001376],[30.463044,22.001321],[30.377493,22.001191],[30.263811,22.001004],[30.101108,22.000648],[29.611946,21.998007],[29.527219,21.997438],[29.250515,21.995457],[29.178054,21.995525],[29.156391,21.995544],[29.135273,21.995562],[29.113609,21.995581],[29.092783,21.995599],[29.070828,21.995618],[29.013337,21.99592],[28.596665,21.99962],[28.469551,22.001137],[28.319164,22.002709],[28.261111,22.003445],[28.222775,22.003161],[27.724165,21.999271],[27.412218,21.994463],[27.386663,21.994188],[27.364089,21.994856],[27.327218,21.99597],[27.267773,21.997765],[27.13806,21.998859],[27.09306,21.998639],[26.971667,21.997611],[26.914445,21.996482],[26.838054,21.995206],[26.674718,21.99597],[26.648608,21.996316],[26.612354,21.996673],[26.339718,21.999718],[25.778609,22.0025],[25.407292,21.999983],[25.216391,22.001109],[25.099163,22.000827],[25.001418,21.999691],[25.001127,21.0103],[25.000518,19.999114],[24.9825,19.999445],[24.763609,20.000273],[24.634445,20],[24.577218,19.999164],[24.455827,19.996945],[24.154445,20.000554],[24.043327,20.002218],[24.005827,19.998818],[24.000273,19.906391],[24.001859,19.506614],[23.999718,19.465827],[23.999445,19.432782],[23.999163,18.832773],[23.999809,18.7543],[23.999163,18.5325],[23.999163,18.299445],[23.999163,18.220685],[23.999163,16.266109],[24,16.132773],[24,15.832773],[23.997563,15.702845],[23.973191,15.697918],[23.951109,15.705554],[23.865,15.730554],[23.800418,15.747918],[23.663327,15.7575],[23.603054,15.7575],[23.564163,15.749718],[23.531663,15.741664],[23.479163,15.725827],[23.460136,15.716809],[23.433891,15.700836],[23.409027,15.690836],[23.381382,15.685],[23.356945,15.681664],[23.329718,15.683609],[23.305554,15.686945],[23.244445,15.701109],[23.170273,15.710554],[23.143609,15.711109],[23.113382,15.708341],[22.937218,15.561945],[22.923336,15.540136],[22.919582,15.515691],[22.923054,15.487218],[22.935418,15.464718],[22.982709,15.414236],[22.997154,15.371318],[22.997218,15.335836],[22.991391,15.283336],[22.984718,15.231109],[22.978745,15.207918],[22.929373,15.114027],[22.892773,15.104718],[22.872773,15.096945],[22.845691,15.074864],[22.786109,15.015],[22.753327,14.976945],[22.669163,14.853745],[22.669582,14.814027],[22.679863,14.758054],[22.699927,14.7041],[22.5,14.637436],[22.47,14.629445],[22.416109,14.600273],[22.398609,14.586245],[22.386527,14.562636],[22.384718,14.5251],[22.438191,14.492773],[22.446109,14.473745],[22.449163,14.379164],[22.449445,14.33],[22.511663,14.240273],[22.553745,14.229027],[22.5668,14.167218],[22.556182,14.129791],[22.434445,14.051664],[22.370827,14.028891],[22.317082,14.010691],[22.2343,13.965554],[22.198327,13.9225],[22.084445,13.779164],[22.136109,13.665],[22.2275,13.495554],[22.294654,13.372709],[22.285,13.340554],[22.269445,13.320836],[22.153054,13.186527],[22.0675,13.148609],[22.025,13.140273],[21.942082,13.051245],[21.891945,12.954445],[21.8291,12.7972],[21.888473,12.693054],[21.906945,12.669445],[21.925554,12.656109],[21.952773,12.643891],[21.977218,12.638609],[22.004718,12.636391],[22.05,12.6375],[22.074445,12.64],[22.119854,12.648609],[22.145273,12.657364],[22.161945,12.668745],[22.199718,12.715554],[22.223327,12.747218],[22.331663,12.673336],[22.4643,12.614864],[22.407636,12.485136],[22.439027,12.347218],[22.503327,12.165836],[22.563609,12.074718],[22.611382,11.992773],[22.597773,11.926664],[22.572773,11.799164],[22.553191,11.665973],[22.559027,11.629027],[22.575273,11.601945],[22.613327,11.550554],[22.625554,11.534445],[22.648327,11.511809],[22.790273,11.429445],[22.933191,11.408745],[22.971391,11.280273],[22.974091,11.209791],[22.893609,10.976945],[22.8665,10.922445],[22.88,10.899718],[22.901391,10.865554],[22.944163,10.798054],[23.009445,10.698609],[23.060273,10.664445],[23.309445,10.451664],[23.323891,10.43],[23.536663,10.083609],[23.669163,9.866945],[23.693891,9.668054],[23.660273,9.597773],[23.649436,9.579164],[23.626036,9.542845],[23.642009,9.443127],[23.664718,9.434718],[23.6493,9.275973],[23.564445,9.187218],[23.539027,9.179445],[23.499645,9.177218],[23.475832,9.137496],[23.448327,9.019582],[23.457918,8.990836],[23.4893,8.966245],[23.509863,8.958327],[23.532218,8.961109],[23.561182,9.000554],[23.581663,8.993745],[23.582636,8.912218],[23.562773,8.868609],[23.536527,8.8316],[23.508054,8.808054],[23.497636,8.7718],[23.529654,8.708336],[23.5575,8.704445],[23.739163,8.705273],[23.763745,8.714582],[23.781945,8.723336],[23.823891,8.727782],[23.925827,8.718054],[24.015554,8.703891],[24.051873,8.693745],[24.086936,8.688327],[24.141182,8.686736],[24.174463,8.695891],[24.201109,8.686945],[24.240269,8.629011],[24.283345,8.679689],[24.412261,8.797395],[24.569203,8.864656],[24.619648,8.971152],[24.586018,9.083253],[24.608438,9.223379],[24.670094,9.329875],[24.647673,9.391531],[24.7878,9.498027],[24.79901,9.615733],[24.782195,9.76707],[24.883086,9.806305],[24.955951,9.907196],[25.118498,10.125793],[25.090473,10.181844],[25.185759,10.33318],[25.499642,10.355601],[25.908811,10.417256],[25.992887,10.366811],[25.987282,10.170634],[26.082568,10.125793],[26.183459,9.963247],[26.250719,9.895986],[26.357215,9.621338],[26.441291,9.542868],[26.771989,9.458792],[26.928931,9.531657],[27.141923,9.587708],[27.38294,9.598918],[27.612748,9.576498],[27.943446,9.576498],[28.072362,9.318665],[28.789809,9.31306],[28.801019,9.397136],[28.83465,9.458792],[29.114903,9.722229],[29.563307,9.711019],[29.574517,10.030507],[29.983686,10.25471],[30.129418,10.187449],[30.549797,9.912801],[30.846865,9.671784],[30.930941,9.705414],[31.272849,9.705414],[31.441001,9.839936],[31.676413,10.142609],[31.805329,10.249105],[32.012716,10.602223],[32.208893,10.731139],[32.472331,11.011392],[32.40507,11.151519],[32.41628,11.633553],[32.124817,11.896991],[32.758189,11.891386],[32.769399,12.059537],[32.730163,12.177244],[33.301879,12.171639],[33.257039,12.081958],[33.195383,11.78489],[33.189778,11.695209],[33.128122,11.577503],[33.273854,10.80961],[33.229013,10.703114],[33.475636,10.630248],[33.699838,10.366811],[33.795124,10.305155],[33.89041,10.137003],[33.952065,10.137003],[33.968881,10.058533],[33.991301,10.024902],[33.980091,9.78949],[33.918435,9.733439],[33.89041,9.593313],[33.90162,9.481212],[34.092234,9.477474],[34.085827,9.553054],[34.14,9.758054],[34.207218,9.905],[34.219718,9.973609],[34.230554,10.027636],[34.323054,10.117218],[34.348327,10.238473],[34.341945,10.280836],[34.328045,10.35],[34.286109,10.554164],[34.314718,10.586391],[34.352773,10.631664],[34.439718,10.784445],[34.594445,10.887782],[34.673882,10.834718],[34.710827,10.802218],[34.769863,10.749445],[34.800554,10.723327],[34.860618,10.732009],[34.975273,10.864445],[34.978609,10.915273],[34.933327,10.956664],[34.9836,11.110282],[34.997612,11.151232],[35.005554,11.174445],[35.0075,11.198327],[34.974996,11.2275],[34.964163,11.250418],[34.967082,11.274864],[34.986382,11.318336],[35.004436,11.348891],[35.013327,11.367773],[35.087491,11.535827],[35.0952,11.576454],[35.091663,11.598891],[35.078191,11.623473],[35.0668,11.646527],[35.058327,11.730273],[35.063191,11.759582],[35.083609,11.805554],[35.102354,11.834445],[35.116245,11.850836],[35.134436,11.863891],[35.168327,11.878336],[35.201663,11.886391],[35.231382,11.898191],[35.253609,11.9175],[35.265436,11.933609],[35.283882,11.983327],[35.383609,12.165554],[35.647354,12.591527],[35.686245,12.602218],[35.700136,12.625],[35.701082,12.666118],[35.964718,12.715554],[36.012636,12.720554],[36.037218,12.715],[36.072291,12.7241],[36.0934,12.706391],[36.111936,12.694027],[36.142545,12.714854],[36.159163,12.881391],[36.135345,12.925418],[36.142082,12.952773],[36.151109,12.971664],[36.168882,12.99],[36.157354,13.033054],[36.2486,13.368054],[36.348882,13.502773],[36.362218,13.519445],[36.3975,13.567782],[36.408745,13.595136],[36.411382,13.615554],[36.407354,13.635273],[36.409027,13.6575],[36.421036,13.686873],[36.471109,13.804164],[36.486936,13.839445],[36.446391,13.956945],[36.539445,14.246109],[36.542241,14.270054],[36.515545,14.450282],[36.452218,15.068609],[36.443282,15.149954],[36.479718,15.180273],[36.542773,15.234718],[36.565554,15.302773],[36.610545,15.437218],[36.626109,15.489445],[36.671663,15.659164],[36.696245,15.748609],[36.763609,15.808054],[36.826109,15.9775],[36.889445,16.146664],[36.924718,16.227082],[36.966873,16.259927],[36.973882,16.285554],[36.952836,16.433609],[36.928054,16.459445],[36.902773,16.493609],[36.896663,16.514718],[36.898327,16.536945],[36.914027,16.644445],[36.9393,16.677636],[36.972636,16.7],[36.988882,16.725554],[37.008954,16.786318],[37.013054,17.022427],[36.993809,17.064891],[37.026109,17.077218],[37.108327,17.047918],[37.147773,17.017009],[37.257354,17.026945],[37.381382,17.043054],[37.423291,17.034209],[37.486109,17.110554],[37.520573,17.1958],[37.530691,17.249427],[37.520273,17.277773],[37.512073,17.321182],[37.588745,17.350136],[37.623054,17.3575],[37.744718,17.381945],[37.895554,17.441391],[37.933882,17.458609],[37.966527,17.499718],[38.034718,17.541664],[38.058745,17.5525],[38.092254,17.543227],[38.135554,17.498882],[38.2575,17.532773],[38.369163,17.664445],[38.449163,17.851109],[38.458609,17.871109],[38.505827,17.913327],[38.604096,18.002855],[38.589027,18.0668],[38.589027,18.0668],[38.586254,18.071149],[38.575827,18.0875],[38.546245,18.107218],[38.468041,18.127206],[38.439718,18.134445],[38.408388,18.158005],[38.369163,18.1875],[38.323931,18.203817],[38.271382,18.222773],[38.229833,18.231935],[38.189509,18.240827],[38.1525,18.259164],[38.145088,18.264165],[38.118327,18.282218],[38.10322,18.295362],[38.089436,18.307354],[38.089436,18.307354],[38.089436,18.307354],[38.101391,18.344864],[38.083616,18.374166],[38.051936,18.426391],[38.034141,18.450048],[38.004718,18.489164],[37.987625,18.507685],[37.978054,18.518054],[37.950273,18.540691],[37.896518,18.5725],[37.828891,18.600827],[37.785401,18.642327],[37.761936,18.664718],[37.763613,18.673094],[37.768054,18.695273],[37.750545,18.706391],[37.718862,18.711619],[37.680691,18.717918],[37.661719,18.71343],[37.642491,18.708882],[37.594718,18.708882],[37.553054,18.71],[37.516391,18.724445],[37.456502,18.82051],[37.435691,18.853891],[37.355554,19.086391],[37.354962,19.088417],[37.336391,19.151945],[37.321391,19.241945],[37.311945,19.3],[37.308327,19.358609],[37.306936,19.395691],[37.290273,19.475],[37.267636,19.5275],[37.241591,19.564582],[37.240273,19.664864],[37.240273,19.664864],[37.257636,19.687909],[37.265827,19.731664],[37.265273,19.762773],[37.257218,19.833882],[37.242773,19.864718],[37.23391,19.882761],[37.227491,19.895827],[37.225821,19.899777],[37.218327,19.9175],[37.185827,20.013473],[37.181701,20.114324],[37.177354,20.220554],[37.178854,20.276369],[37.180273,20.329164],[37.184718,20.401945],[37.200827,20.458054],[37.202051,20.458445],[37.226936,20.466391],[37.228191,20.556391],[37.223833,20.571332],[37.207773,20.626391],[37.184863,20.681527],[37.176391,20.692881],[37.171391,20.699582],[37.164163,20.796109],[37.1375,20.968054],[37.093818,21.169091],[37.093818,21.169091],[37.093818,21.169091],[37.094687,21.172691],[37.103191,21.207918],[37.153754,21.1953],[37.230273,21.129164],[37.247241,21.091087],[37.264209,21.053009],[37.264209,21.053009],[37.264209,21.053009],[37.259945,21.054354],[37.237636,21.061391],[37.237636,21.061391],[37.237636,21.061391],[37.236617,21.062695],[37.223745,21.079164],[37.205027,21.090685],[37.199373,21.094164],[37.209524,21.067477],[37.225418,21.025691],[37.2475,21.001664],[37.305691,21.017291],[37.305702,21.017845],[37.306591,21.063264],[37.266391,21.126109],[37.233327,21.166527],[37.200827,21.200554],[37.174531,21.222831],[37.163773,21.231945],[37.143609,21.248273],[37.127166,21.264225],[37.098882,21.291664],[37.069163,21.330827],[37.000273,21.431245],[36.911382,21.608609],[36.899991,21.637218],[36.874163,21.786945],[36.854163,21.971664],[36.854163,21.971664],[36.854163,21.971664],[36.854163,21.971664],[36.890714,22.003972]]]}}]}
