{"type":"FeatureCollection","features":[{"type":"Feature","geometry":{"type":"Polygon","coordinates":[[[34.092234,9.477474],[33.90162,9.481212],[33.89041,9.593313],[33.918435,9.733439],[33.980091,9.78949],[33.991301,10.024902],[33.968881,10.058533],[33.952065,10.137003],[33.89041,10.137003],[33.795124,10.305155],[33.699838,10.366811],[33.475636,10.630248],[33.229013,10.703114],[33.273854,10.80961],[33.128122,11.577503],[33.189778,11.695209],[33.195383,11.78489],[33.257039,12.081958],[33.301879,12.171639],[32.730163,12.177244],[32.769399,12.059537],[32.758189,11.891386],[32.124817,11.896991],[32.41628,11.633553],[32.40507,11.151519],[32.472331,11.011392],[32.208893,10.731139],[32.012716,10.602223],[31.805329,10.249105],[31.676413,10.142609],[31.441001,9.839936],[31.272849,9.705414],[30.930941,9.705414],[30.846865,9.671784],[30.549797,9.912801],[30.129418,10.187449],[29.983686,10.25471],[29.574517,10.030507],[29.563307,9.711019],[29.114903,9.722229],[28.83465,9.458792],[28.801019,9.397136],[28.789809,9.31306],[28.072362,9.318665],[27.943446,9.576498],[27.612748,9.576498],[27.38294,9.598918],[27.141923,9.587708],[26.928931,9.531657],[26.771989,9.458792],[26.441291,9.542868],[26.357215,9.621338],[26.250719,9.895986],[26.183459,9.963247],[26.082568,10.125793],[25.987282,10.170634],[25.992887,10.366811],[25.908811,10.417256],[25.499642,10.355601],[25.185759,10.33318],[25.090473,10.181844],[25.118498,10.125793],[24.955951,9.907196],[24.883086,9.806305],[24.782195,9.76707],[24.79901,9.615733],[24.7878,9.498027],[24.647673,9.391531],[24.670094,9.329875],[24.608438,9.223379],[24.586018,9.083253],[24.619648,8.971152],[24.569203,8.864656],[24.412261,8.797395],[24.283345,8.679689],[24.240269,8.629011],[24.268327,8.5875],[24.241391,8.562218],[24.201945,8.526109],[24.163609,8.473054],[24.140273,8.375827],[24.153327,8.349164],[24.162773,8.330554],[24.184854,8.309864],[24.21,8.293054],[24.230554,8.284445],[24.253054,8.278327],[24.336936,8.262782],[24.479718,8.238054],[24.627636,8.220273],[24.66,8.218609],[24.721663,8.209718],[24.804445,8.192782],[24.843891,8.175554],[24.870136,8.160973],[24.938609,8.088609],[24.9475,8.067082],[24.943882,8.041391],[24.970273,8.003336],[25.017773,7.955282],[25.053891,7.921109],[25.084718,7.894864],[25.111736,7.891245],[25.139445,7.897782],[25.186109,7.901945],[25.225554,7.872773],[25.255827,7.845691],[25.287218,7.778891],[25.2993,7.682918],[25.293745,7.645418],[25.267709,7.626736],[25.243891,7.623336],[25.194718,7.595973],[25.182636,7.577918],[25.200273,7.516391],[25.221454,7.494309],[25.267773,7.475282],[25.335,7.420554],[25.3468,7.401391],[25.352082,7.372009],[25.369863,7.343891],[25.455,7.297782],[25.623891,7.211109],[25.729718,7.168054],[25.850273,7.109445],[25.984445,7.018336],[26.047773,6.963891],[26.052218,6.932782],[26.064163,6.903054],[26.097636,6.845691],[26.119163,6.826109],[26.270418,6.705973],[26.3159,6.700136],[26.360836,6.683336],[26.405155,6.639636],[26.366109,6.583336],[26.313609,6.496391],[26.298054,6.465554],[26.304373,6.39],[26.3725,6.346391],[26.454854,6.297782],[26.525418,6.216245],[26.528473,6.192364],[26.518745,6.169445],[26.5,6.156527],[26.463536,6.130973],[26.442773,6.102218],[26.442291,6.077427],[26.565282,6.028336],[26.612218,6.014445],[26.668891,6.007218],[26.6975,6.0175],[26.735554,6.009164],[26.812909,5.977636],[26.824027,5.960418],[26.828327,5.914445],[26.852982,5.891391],[26.923882,5.865554],[26.981663,5.859445],[27.110273,5.791109],[27.142773,5.771945],[27.201945,5.708609],[27.240836,5.647782],[27.278891,5.583891],[27.279863,5.544582],[27.257427,5.509509],[27.236318,5.426454],[27.254718,5.331391],[27.275,5.2825],[27.297782,5.230973],[27.320273,5.208336],[27.365418,5.170554],[27.400827,5.150345],[27.459718,5.0716],[27.455163,5.021075],[27.524436,4.943609],[27.660209,4.896182],[27.768891,4.787773],[27.782909,4.7575],[27.777709,4.6974],[27.771663,4.666109],[27.789445,4.600136],[27.865273,4.557082],[27.901948,4.553683],[27.929718,4.551109],[28.028054,4.502218],[28.084445,4.432782],[28.201109,4.347845],[28.363054,4.29],[28.477218,4.330836],[28.488327,4.35],[28.505836,4.373054],[28.584718,4.401945],[28.633473,4.416809],[28.6525,4.425418],[28.672773,4.455836],[28.687773,4.484582],[28.6934,4.510973],[28.7125,4.5375],[28.7825,4.557364],[28.803609,4.5191],[28.802909,4.497082],[28.827427,4.482709],[28.890273,4.477782],[28.977218,4.483818],[29.011454,4.496982],[29.131382,4.412218],[29.159445,4.386109],[29.210273,4.342082],[29.243609,4.346109],[29.325,4.39],[29.376875,4.455241],[29.432782,4.525554],[29.464163,4.591945],[29.466527,4.634718],[29.467773,4.663891],[29.494236,4.683536],[29.614718,4.656109],[29.643327,4.643609],[29.698609,4.6175],[29.813536,4.559027],[29.806391,4.496109],[29.8,4.468891],[29.7925,4.433054],[29.799163,4.375345],[29.838745,4.346873],[29.959445,4.291391],[29.987782,4.233891],[30.0618,4.131391],[30.079718,4.122364],[30.119509,4.116809],[30.148054,4.099582],[30.166663,4.039718],[30.207773,3.961664],[30.243054,3.955282],[30.275209,3.959309],[30.336109,3.940282],[30.361382,3.925282],[30.434718,3.885836],[30.494445,3.865073],[30.527218,3.873054],[30.551036,3.863818],[30.581663,3.700136],[30.581391,3.668891],[30.575136,3.641664],[30.562009,3.613264],[30.591873,3.604927],[30.631109,3.611109],[30.735209,3.637782],[30.786391,3.66],[30.847218,3.528336],[30.858818,3.493391],[30.868536,3.522573],[30.891391,3.565554],[30.954718,3.671109],[30.979163,3.694445],[31.176663,3.795282],[31.203891,3.795836],[31.286663,3.795],[31.377218,3.745554],[31.459718,3.698891],[31.540836,3.653609],[31.704027,3.714445],[31.748609,3.761391],[31.789445,3.808745],[31.821663,3.806945],[31.853473,3.784718],[31.932082,3.689164],[31.946391,3.621664],[31.951109,3.593891],[32.025836,3.591391],[32.068491,3.582218],[32.077082,3.559027],[32.090409,3.536109],[32.111245,3.526664],[32.135827,3.521109],[32.194527,3.512754],[32.200827,3.575036],[32.199773,3.609727],[32.231972,3.630789],[32.404445,3.743609],[32.479163,3.745836],[32.635273,3.751945],[32.669163,3.753336],[32.719445,3.755836],[32.800282,3.780554],[32.874718,3.803891],[32.898045,3.811945],[32.938327,3.837218],[32.978609,3.863336],[33.016663,3.888609],[33.127218,3.808336],[33.183882,3.766109],[33.245,3.764164],[33.387773,3.758054],[33.517423,3.755587],[33.996663,4.222782],[34.096109,4.320554],[34.374163,4.596664],[34.388191,4.609682],[34.407773,4.610554],[34.482218,4.611109],[34.713054,4.612218],[34.773891,4.6125],[34.821391,4.612218],[34.950273,4.612782],[35.146945,4.613891],[35.508882,4.616736],[35.546945,4.616664],[35.580827,4.616945],[35.608454,4.617745],[35.641936,4.617218],[35.675827,4.6175],[35.701688,4.618336],[35.807993,4.618779],[35.899718,4.619718],[35.932871,4.621977],[35.924718,4.640273],[35.774436,4.798609],[35.779991,5.082636],[35.802773,5.105273],[35.823609,5.136664],[35.830691,5.1684],[35.805136,5.206809],[35.796245,5.235136],[35.798745,5.265554],[35.821663,5.328609],[35.796945,5.331109],[35.774991,5.337218],[35.753745,5.346945],[35.726245,5.364445],[35.527918,5.426809],[35.504718,5.431391],[35.443709,5.425518],[35.419091,5.3984],[35.352845,5.350691],[35.326245,5.357082],[35.303054,5.377364],[35.270418,5.438336],[35.277082,5.458054],[35.2927,5.487636],[35.289991,5.507782],[35.103882,5.6325],[35.105409,5.688336],[35.028327,5.814164],[34.997818,5.860635],[34.986382,5.878054],[34.975827,5.964718],[34.989386,6.00799],[34.981382,6.061109],[34.969718,6.086527],[34.952218,6.103473],[34.922427,6.132291],[34.870554,6.2375],[34.8593,6.267218],[34.856382,6.291109],[34.85,6.366664],[34.756991,6.613782],[34.704718,6.677782],[34.679163,6.7],[34.654718,6.716664],[34.632082,6.729027],[34.602773,6.734718],[34.553609,6.735691],[34.528818,6.747218],[34.486973,6.877491],[34.4718,6.914309],[34.430954,6.935409],[34.360963,6.959027],[34.328745,6.958745],[34.299573,6.964327],[34.280554,6.975836],[34.235691,7.019718],[34.223609,7.0425],[34.193882,7.09],[34.163327,7.171664],[34.099163,7.199718],[34.027082,7.248127],[34.029745,7.280036],[34.032773,7.304445],[34.027709,7.378673],[33.885554,7.525418],[33.712491,7.658473],[33.647218,7.685],[33.464445,7.744027],[33.439163,7.744445],[33.2575,7.763609],[33.096663,7.781109],[33.052218,7.790691],[33.014973,7.846064],[32.996827,7.887218],[32.9918,7.926045],[33.031945,7.997391],[33.121382,8.100973],[33.162773,8.115],[33.185918,8.140291],[33.178054,8.2225],[33.165836,8.278327],[33.160827,8.356527],[33.171245,8.399791],[33.263536,8.461527],[33.326736,8.453682],[33.380827,8.437918],[33.508609,8.4662],[33.634373,8.467154],[33.669991,8.437082],[33.690482,8.395482],[33.715273,8.375064],[33.771327,8.367745],[33.789718,8.384445],[33.818745,8.411527],[33.852491,8.425836],[33.881527,8.430836],[33.915273,8.430554],[33.970754,8.437564],[34.002218,8.460282],[34.070827,8.523336],[34.105545,8.557782],[34.122232,8.582114],[34.1236,8.634164],[34.13,8.805827],[34.134991,8.955273],[34.100554,9.385273],[34.097773,9.419718],[34.094577,9.454305],[34.092234,9.477474]]]},"properties":{"cntry_name":"South Sudan","area":627325,"capname":"Juba","caplong":31.6,"caplat":4.85,"gwcode":626,"gwsdate":"08.07.2011 22:00:00","gwsyear":2011,"gwsmonth":7,"gwsday":9,"gwedate":"30.12.2019 23:00:00","gweyear":2019,"gwemonth":12,"gweday":31,"cap_geom":"SRID=4326;POINT (31.600000381469727 4.849999904632568)"}}]}
