{"type":"FeatureCollection","features":[{"type":"Feature","geometry":{"type":"MultiPolygon","coordinates":[[[[14.74,55.06],[14.72,55.08],[14.68,55.1],[14.7,55.22],[14.74,55.3],[14.76,55.3],[14.8,55.28],[14.82,55.26],[14.84,55.26],[14.88,55.22],[15,55.18],[15.06,55.16],[15.1,55.16],[15.12,55.14],[15.14,55.12],[15.14,55.08],[15.1,55.02],[15.08,55],[15.04,55],[14.94,55.02],[14.88,55.02],[14.74,55.06]]],[[[12.36,55.4],[12.4,55.38],[12.44,55.36],[12.46,55.34],[12.46,55.28],[12.44,55.28],[12.42,55.26],[12.32,55.24],[12.24,55.24],[12.2,55.22],[12.18,55.22],[12.04,55.18],[12.02,55.16],[12.06,55.14],[12.06,55.12],[12.1,55.12],[12.12,55.14],[12.14,55.12],[12.18,55.12],[12.16,55],[12.08,54.96],[12.02,54.96],[12,54.98],[11.98,54.98],[11.96,55],[11.92,55],[11.9,54.98],[11.86,55.02],[11.84,55.02],[11.74,55.06],[11.78,55.14],[11.8,55.16],[11.74,55.2],[11.68,55.2],[11.66,55.18],[11.62,55.18],[11.54,55.2],[11.52,55.2],[11.46,55.22],[11.4,55.22],[11.36,55.2],[11.26,55.2],[11.18,55.34],[11.22,55.4],[11.2,55.44],[11.14,55.56],[11.14,55.58],[11.08,55.66],[11.08,55.68],[11,55.7],[10.88,55.74],[10.94,55.74],[11.14,55.72],[11.16,55.7],[11.22,55.7],[11.34,55.74],[11.48,55.84],[11.5,55.84],[11.5,55.88],[11.52,55.88],[11.52,55.9],[11.5,55.92],[11.5,55.94],[11.36,55.94],[11.28,55.98],[11.32,55.98],[11.4,55.96],[11.6,55.94],[11.66,55.94],[11.7,55.96],[11.78,55.96],[11.74,55.92],[11.68,55.9],[11.68,55.82],[11.72,55.8],[11.76,55.76],[11.8,55.68],[11.8,55.66],[11.82,55.68],[11.84,55.7],[11.84,55.76],[11.92,55.92],[11.96,55.92],[12,55.9],[12.04,55.8],[12.06,55.74],[12.06,55.72],[11.98,55.72],[11.94,55.68],[11.94,55.66],[12.06,55.66],[12.1,55.7],[12.1,55.72],[12.08,55.74],[12.08,55.76],[12.04,55.92],[12.02,55.96],[11.94,55.96],[11.88,55.94],[11.84,55.96],[11.86,55.96],[11.92,56],[12.18,56.1],[12.2,56.12],[12.34,56.12],[12.52,56.08],[12.54,56.08],[12.62,56.04],[12.58,56],[12.56,56],[12.52,55.94],[12.52,55.92],[12.56,55.86],[12.58,55.84],[12.6,55.8],[12.6,55.76],[12.58,55.74],[12.6,55.7],[12.56,55.66],[12.54,55.66],[12.52,55.64],[12.5,55.64],[12.5,55.6],[12.44,55.62],[12.38,55.62],[12.38,55.6],[12.34,55.6],[12.26,55.56],[12.24,55.54],[12.2,55.5],[12.2,55.44],[12.22,55.42],[12.3,55.4],[12.36,55.4]]],[[[12.32,54.96],[12.26,54.92],[12.18,54.88],[12.16,54.88],[12.12,54.9],[12.14,54.96],[12.18,54.98],[12.32,55.04],[12.4,55.04],[12.46,55.02],[12.5,55.02],[12.54,55],[12.56,54.96],[12.54,54.94],[12.5,54.94],[12.46,54.96],[12.32,54.96]]],[[[11.92,54.58],[11.88,54.66],[11.88,54.68],[11.9,54.7],[11.9,54.72],[11.86,54.78],[11.8,54.84],[11.78,54.84],[11.76,54.86],[11.72,54.94],[11.74,54.96],[11.84,54.96],[11.86,54.94],[12,54.9],[12.08,54.9],[12.1,54.88],[12.14,54.86],[12.16,54.84],[12.12,54.8],[12.08,54.8],[12.08,54.78],[12.06,54.78],[11.98,54.72],[11.98,54.7],[11.96,54.7],[11.96,54.6],[11.98,54.58],[11.98,54.56],[11.94,54.56],[11.92,54.58]]],[[[11.12,54.96],[11.24,54.96],[11.28,54.94],[11.34,54.92],[11.34,54.9],[11.36,54.88],[11.4,54.86],[11.52,54.82],[11.56,54.82],[11.64,54.88],[11.66,54.9],[11.7,54.88],[11.74,54.86],[11.84,54.76],[11.86,54.74],[11.86,54.68],[11.84,54.66],[11.78,54.64],[11.72,54.64],[11.72,54.66],[11.58,54.66],[11.52,54.64],[11.46,54.62],[11.38,54.64],[11.36,54.66],[11.32,54.68],[11.28,54.7],[11.26,54.7],[11.24,54.72],[11.2,54.72],[11.14,54.74],[11.1,54.74],[11.02,54.76],[11,54.78],[11.02,54.82],[11.02,54.9],[11.04,54.92],[11.06,54.94],[11.12,54.96]]],[[[11.2,57.32],[11.08,57.26],[11.06,57.24],[11.02,57.24],[11,57.22],[10.96,57.24],[10.94,57.26],[10.92,57.26],[10.9,57.24],[10.88,57.24],[10.86,57.26],[10.92,57.3],[11.02,57.32],[11.14,57.34],[11.2,57.32]]],[[[8.52,56.66],[8.54,56.68],[8.58,56.68],[8.6,56.64],[8.6,56.6],[8.54,56.58],[8.48,56.64],[8.46,56.64],[8.4,56.68],[8.36,56.68],[8.24,56.7],[8.24,56.8],[8.26,56.82],[8.3,56.86],[8.34,56.9],[8.38,56.94],[8.46,57],[8.58,57.1],[8.62,57.12],[8.64,57.12],[8.72,57.1],[8.84,57.1],[8.9,57.12],[9.02,57.16],[9.08,57.14],[9.26,57.14],[9.4,57.16],[9.46,57.18],[9.5,57.2],[9.54,57.22],[9.58,57.24],[9.64,57.3],[9.7,57.36],[9.72,57.38],[9.76,57.44],[9.8,57.46],[9.96,57.58],[10.1,57.58],[10.12,57.6],[10.22,57.6],[10.26,57.62],[10.3,57.62],[10.4,57.68],[10.46,57.7],[10.52,57.72],[10.54,57.74],[10.64,57.74],[10.62,57.72],[10.56,57.7],[10.52,57.68],[10.5,57.66],[10.48,57.64],[10.46,57.62],[10.44,57.6],[10.44,57.54],[10.52,57.42],[10.52,57.22],[10.44,57.18],[10.42,57.16],[10.34,57],[10.2,57],[10.16,57.02],[10.12,57.04],[10.02,57.08],[9.98,57.08],[10.12,57.02],[10.16,57],[10.18,57],[10.22,56.98],[10.3,56.98],[10.28,56.96],[10.26,56.92],[10.28,56.82],[10.28,56.8],[10.3,56.74],[10.24,56.72],[10.16,56.72],[9.86,56.66],[9.88,56.64],[9.94,56.64],[10,56.66],[10.08,56.68],[10.18,56.7],[10.34,56.7],[10.36,56.68],[10.36,56.64],[10.32,56.62],[10.3,56.62],[10.28,56.6],[10.24,56.58],[10.22,56.54],[10.18,56.46],[10.22,56.48],[10.22,56.5],[10.24,56.54],[10.3,56.58],[10.32,56.56],[10.36,56.56],[10.42,56.52],[10.5,56.52],[10.52,56.5],[10.54,56.5],[10.58,56.52],[10.64,56.52],[10.76,56.54],[10.78,56.54],[10.84,56.52],[10.86,56.52],[10.96,56.44],[10.92,56.34],[10.9,56.32],[10.74,56.16],[10.68,56.2],[10.68,56.22],[10.62,56.22],[10.58,56.2],[10.56,56.16],[10.58,56.12],[10.54,56.1],[10.52,56.1],[10.4,56.16],[10.36,56.2],[10.44,56.22],[10.48,56.22],[10.5,56.28],[10.44,56.3],[10.4,56.3],[10.24,56.18],[10.22,56.14],[10.24,56.12],[10.26,56.08],[10.28,56.02],[10.26,55.92],[10.18,55.82],[10.14,55.84],[10.12,55.86],[10.1,55.88],[9.98,55.88],[9.86,55.84],[9.88,55.84],[9.92,55.82],[10.04,55.82],[10.04,55.76],[10,55.7],[9.84,55.68],[9.74,55.68],[9.68,55.7],[9.64,55.72],[9.56,55.7],[9.62,55.7],[9.64,55.68],[9.72,55.66],[9.82,55.6],[9.7,55.54],[9.58,55.42],[9.6,55.4],[9.6,55.36],[9.68,55.28],[9.7,55.26],[9.72,55.24],[9.68,55.2],[9.64,55.18],[9.62,55.2],[9.58,55.2],[9.48,55.16],[9.46,55.12],[9.5,55.04],[9.54,55.04],[9.64,55.02],[9.72,54.98],[9.74,54.94],[9.76,54.9],[9.74,54.84],[9.62,54.86],[9.62,54.9],[9.64,54.9],[9.64,54.92],[9.6,54.92],[9.5,54.86],[9.46,54.84],[9.44,54.82],[9.44,54.8],[9.58,54.82],[9.66,54.82],[9.68,54.8],[9.78,54.78],[9.82,54.78],[9.9,54.8],[9.94,54.78],[9.98,54.76],[10.02,54.7],[10.04,54.66],[10.04,54.64],[10.02,54.54],[10,54.52],[9.98,54.5],[9.9,54.48],[9.84,54.48],[9.86,54.46],[9.9,54.46],[10,54.48],[10.12,54.48],[10.28,54.46],[10.36,54.44],[10.6,54.36],[10.62,54.36],[10.66,54.34],[10.66,54.32],[10.7,54.3],[10.78,54.3],[10.8,54.32],[10.84,54.32],[10.86,54.36],[10.88,54.36],[10.96,54.38],[10.98,54.38],[11.02,54.36],[11.04,54.36],[11.06,54.38],[11.08,54.38],[11.08,54.3],[11.1,54.2],[11.08,54.2],[11.06,54.18],[11.02,54.16],[10.88,54.1],[10.84,54.1],[10.8,54.08],[10.76,54.06],[10.76,54.04],[10.78,54],[10.84,54],[10.8,53.98],[10.68,53.96],[10.62,53.94],[10.56,53.9],[10.52,53.86],[10.52,53.84],[10.5,53.82],[10.5,53.78],[10.52,53.76],[10.52,53.74],[10.54,53.74],[10.62,53.76],[10.68,53.74],[10.7,53.74],[10.74,53.76],[10.76,53.78],[10.8,53.8],[10.82,53.78],[10.82,53.76],[10.84,53.76],[10.84,53.74],[10.86,53.74],[10.86,53.72],[10.88,53.72],[10.92,53.7],[10.94,53.68],[10.94,53.62],[10.9,53.62],[10.88,53.6],[10.84,53.6],[10.84,53.58],[10.82,53.58],[10.8,53.56],[10.8,53.54],[10.78,53.52],[10.78,53.5],[10.74,53.5],[10.7,53.48],[10.64,53.48],[10.62,53.46],[10.6,53.46],[10.6,53.44],[10.58,53.42],[10.56,53.42],[10.54,53.4],[10.48,53.42],[10.42,53.42],[10.36,53.44],[10.32,53.44],[10.32,53.46],[10.3,53.46],[10.28,53.5],[10.28,53.52],[10.24,53.52],[10.18,53.56],[10.14,53.56],[10.14,53.58],[10.12,53.58],[10.1,53.6],[10.04,53.6],[10.04,53.62],[9.94,53.62],[9.92,53.64],[9.82,53.64],[9.8,53.62],[9.78,53.62],[9.76,53.6],[9.76,53.56],[9.7,53.56],[9.68,53.58],[9.58,53.62],[9.56,53.62],[9.52,53.66],[9.44,53.74],[9.42,53.78],[9.4,53.8],[9.4,53.82],[9.38,53.84],[9.34,53.86],[9.28,53.88],[9.22,53.88],[9.18,53.9],[8.94,53.9],[8.94,53.92],[8.92,53.92],[8.9,53.94],[8.88,53.96],[8.86,54],[8.84,54.04],[8.92,54.04],[8.94,54.02],[9,54.02],[9.02,54.04],[9.02,54.08],[9,54.1],[8.98,54.14],[8.86,54.12],[8.82,54.16],[8.82,54.2],[8.84,54.26],[8.88,54.3],[8.84,54.3],[8.8,54.28],[8.7,54.26],[8.66,54.28],[8.64,54.28],[8.62,54.3],[8.6,54.32],[8.62,54.38],[8.64,54.4],[8.76,54.4],[8.82,54.42],[8.84,54.4],[8.86,54.4],[8.88,54.42],[9,54.46],[9.02,54.48],[9.02,54.5],[8.96,54.54],[8.94,54.54],[8.94,54.56],[8.92,54.56],[8.88,54.6],[8.86,54.62],[8.8,54.68],[8.78,54.7],[8.76,54.72],[8.74,54.72],[8.72,54.74],[8.7,54.74],[8.66,54.8],[8.64,54.84],[8.58,54.86],[8.54,54.88],[8.52,54.88],[8.46,54.86],[8.3,54.86],[8.3,54.94],[8.36,55.02],[8.38,55.04],[8.4,55.06],[8.46,55.06],[8.44,55.02],[8.4,55],[8.38,55],[8.36,54.96],[8.4,54.94],[8.42,54.92],[8.46,54.9],[8.56,54.9],[8.6,54.92],[8.66,54.92],[8.66,54.98],[8.68,55.12],[8.56,55.1],[8.5,55.06],[8.48,55.08],[8.46,55.12],[8.48,55.18],[8.5,55.2],[8.56,55.2],[8.6,55.18],[8.56,55.16],[8.58,55.14],[8.68,55.14],[8.68,55.16],[8.66,55.2],[8.66,55.32],[8.64,55.4],[8.62,55.44],[8.54,55.44],[8.48,55.46],[8.44,55.46],[8.3,55.56],[8.26,55.5],[8.1,55.56],[8.12,55.6],[8.14,55.62],[8.18,55.72],[8.18,55.76],[8.16,55.84],[8.16,55.9],[8.14,55.94],[8.14,55.96],[8.12,55.98],[8.14,55.98],[8.16,55.94],[8.16,55.92],[8.18,55.9],[8.18,55.84],[8.2,55.82],[8.28,55.84],[8.32,55.86],[8.4,55.9],[8.38,55.92],[8.32,56.02],[8.32,56.06],[8.26,56.08],[8.22,56.1],[8.14,56.1],[8.14,56.08],[8.12,56],[8.1,56.02],[8.1,56.12],[8.12,56.34],[8.12,56.54],[8.16,56.64],[8.18,56.66],[8.2,56.7],[8.22,56.7],[8.24,56.68],[8.22,56.66],[8.2,56.64],[8.24,56.6],[8.32,56.58],[8.42,56.58],[8.48,56.56],[8.52,56.54],[8.6,56.5],[8.64,56.48],[8.74,56.48],[8.76,56.56],[8.72,56.58],[8.68,56.62],[8.84,56.72],[8.86,56.76],[8.96,56.8],[9.12,56.8],[9.14,56.7],[9.06,56.62],[9.04,56.6],[9.06,56.56],[9.1,56.58],[9.1,56.6],[9.18,56.62],[9.22,56.64],[9.24,56.64],[9.28,56.62],[9.26,56.58],[9.28,56.56],[9.32,56.52],[9.38,56.56],[9.36,56.56],[9.32,56.68],[9.3,56.7],[9.26,56.7],[9.18,56.68],[9.16,56.9],[9.18,56.92],[9.3,57],[9.22,57],[9.2,57.02],[9.18,57.02],[9.16,57.04],[9.14,57.04],[9.12,57.06],[9.12,57.04],[9.02,57.02],[8.88,57],[8.82,56.98],[8.76,56.96],[8.72,56.96],[8.68,56.94],[8.62,56.88],[8.62,56.86],[8.56,56.82],[8.54,56.8],[8.5,56.8],[8.48,56.78],[8.46,56.7],[8.42,56.68],[8.48,56.68],[8.52,56.66]],[[9.98,57.08],[9.5,57.04],[9.4,57.02],[9.52,57.02],[9.56,57],[9.68,57.04],[9.76,57.06],[9.8,57.06],[9.86,57.04],[9.96,57.06],[9.98,57.08]],[[9.4,57.02],[9.36,57.02],[9.32,57],[9.4,57.02]],[[10.64,54.2],[10.52,54.2],[10.52,54.18],[10.48,54.18],[10.48,54.16],[10.46,54.16],[10.46,54.12],[10.44,54.12],[10.44,54.06],[10.5,54.06],[10.6,54.08],[10.66,54.08],[10.68,54.1],[10.7,54.12],[10.72,54.14],[10.72,54.16],[10.7,54.16],[10.7,54.18],[10.66,54.18],[10.64,54.2]]],[[[8.54,56.8],[8.62,56.84],[8.66,56.9],[8.82,56.9],[8.82,56.92],[8.84,56.94],[8.86,56.96],[8.9,56.96],[8.92,56.92],[8.88,56.8],[8.84,56.74],[8.76,56.7],[8.74,56.68],[8.66,56.68],[8.64,56.7],[8.6,56.72],[8.56,56.74],[8.52,56.74],[8.52,56.76],[8.54,56.8]]],[[[10.66,54.8],[10.66,54.84],[10.68,54.9],[10.7,54.92],[10.74,54.96],[10.76,54.98],[10.8,54.98],[10.86,55.04],[10.88,55.1],[10.9,55.14],[10.94,55.16],[10.96,55.16],[10.94,55.08],[10.92,55.02],[10.9,55],[10.88,54.98],[10.86,54.96],[10.84,54.94],[10.78,54.84],[10.76,54.78],[10.7,54.72],[10.68,54.74],[10.68,54.76],[10.66,54.8]]],[[[10.8,55.36],[10.84,55.3],[10.82,55.2],[10.78,55.12],[10.74,55.06],[10.6,55.06],[10.52,55.02],[10.5,55.02],[10.16,55.08],[10.14,55.12],[10.16,55.12],[10.12,55.18],[10,55.2],[9.9,55.28],[9.88,55.34],[9.82,55.44],[9.76,55.46],[9.72,55.48],[9.68,55.5],[9.74,55.54],[9.82,55.54],[9.84,55.52],[9.88,55.5],[9.9,55.5],[9.92,55.52],[10,55.54],[10.08,55.56],[10.12,55.56],[10.14,55.58],[10.18,55.58],[10.22,55.6],[10.3,55.62],[10.32,55.62],[10.4,55.58],[10.48,55.54],[10.48,55.52],[10.44,55.48],[10.42,55.46],[10.42,55.44],[10.48,55.44],[10.6,55.48],[10.62,55.52],[10.62,55.62],[10.66,55.58],[10.74,55.5],[10.8,55.36]]],[[[10.52,54.98],[10.5,55],[10.62,55.04],[10.68,54.98],[10.62,54.96],[10.56,54.94],[10.52,54.98]]],[[[10.62,55.88],[10.62,55.86],[10.66,55.86],[10.6,55.76],[10.52,55.76],[10.52,55.98],[10.56,56],[10.56,55.96],[10.62,55.88]]],[[[10.28,54.94],[10.3,54.92],[10.44,54.86],[10.44,54.84],[10.4,54.82],[10.24,54.9],[10.18,54.96],[10.28,54.94]]],[[[9.96,55.02],[10,54.98],[10.04,54.94],[10.08,54.88],[9.98,54.86],[9.94,54.86],[9.9,54.88],[9.8,54.9],[9.78,54.9],[9.78,54.92],[9.76,54.96],[9.76,54.98],[9.78,54.96],[9.82,54.94],[9.84,54.94],[9.84,54.98],[9.8,55.02],[9.74,55.02],[9.72,55],[9.7,55.02],[9.68,55.02],[9.64,55.06],[9.66,55.06],[9.72,55.08],[9.8,55.08],[9.84,55.06],[9.96,55.02]]]]},"properties":{"From":1816,"To":1864,"Id":390,"Holder":390,"Name":"Denmark","Status":"independent","Area":57085.894731935,"Capital":"Copenhagen","capital_geom":"POINT (12.566982 55.67696)","centroid_geom":"POINT (9.976561153436558 55.52324158269854)"}},{"type":"Feature","geometry":{"type":"MultiPolygon","coordinates":[[[[14.74,55.06],[14.72,55.08],[14.68,55.1],[14.7,55.22],[14.74,55.3],[14.76,55.3],[14.8,55.28],[14.82,55.26],[14.84,55.26],[14.88,55.22],[15,55.18],[15.06,55.16],[15.1,55.16],[15.12,55.14],[15.14,55.12],[15.14,55.08],[15.1,55.02],[15.08,55],[15.04,55],[14.94,55.02],[14.88,55.02],[14.74,55.06]]],[[[12.36,55.4],[12.4,55.38],[12.44,55.36],[12.46,55.34],[12.46,55.28],[12.44,55.28],[12.42,55.26],[12.32,55.24],[12.24,55.24],[12.2,55.22],[12.18,55.22],[12.04,55.18],[12.02,55.16],[12.06,55.14],[12.06,55.12],[12.1,55.12],[12.12,55.14],[12.14,55.12],[12.18,55.12],[12.16,55],[12.08,54.96],[12.02,54.96],[12,54.98],[11.98,54.98],[11.96,55],[11.92,55],[11.9,54.98],[11.86,55.02],[11.84,55.02],[11.74,55.06],[11.78,55.14],[11.8,55.16],[11.74,55.2],[11.68,55.2],[11.66,55.18],[11.62,55.18],[11.54,55.2],[11.52,55.2],[11.46,55.22],[11.4,55.22],[11.36,55.2],[11.26,55.2],[11.18,55.34],[11.22,55.4],[11.2,55.44],[11.14,55.56],[11.14,55.58],[11.08,55.66],[11.08,55.68],[11,55.7],[10.88,55.74],[10.94,55.74],[11.14,55.72],[11.16,55.7],[11.22,55.7],[11.34,55.74],[11.48,55.84],[11.5,55.84],[11.5,55.88],[11.52,55.88],[11.52,55.9],[11.5,55.92],[11.5,55.94],[11.36,55.94],[11.28,55.98],[11.32,55.98],[11.4,55.96],[11.6,55.94],[11.66,55.94],[11.7,55.96],[11.78,55.96],[11.74,55.92],[11.68,55.9],[11.68,55.82],[11.72,55.8],[11.76,55.76],[11.8,55.68],[11.8,55.66],[11.82,55.68],[11.84,55.7],[11.84,55.76],[11.92,55.92],[11.96,55.92],[12,55.9],[12.04,55.8],[12.06,55.74],[12.06,55.72],[11.98,55.72],[11.94,55.68],[11.94,55.66],[12.06,55.66],[12.1,55.7],[12.1,55.72],[12.08,55.74],[12.08,55.76],[12.04,55.92],[12.02,55.96],[11.94,55.96],[11.88,55.94],[11.84,55.96],[11.86,55.96],[11.92,56],[12.18,56.1],[12.2,56.12],[12.34,56.12],[12.52,56.08],[12.54,56.08],[12.62,56.04],[12.58,56],[12.56,56],[12.52,55.94],[12.52,55.92],[12.56,55.86],[12.58,55.84],[12.6,55.8],[12.6,55.76],[12.58,55.74],[12.6,55.7],[12.56,55.66],[12.54,55.66],[12.52,55.64],[12.5,55.64],[12.5,55.6],[12.44,55.62],[12.38,55.62],[12.38,55.6],[12.34,55.6],[12.26,55.56],[12.24,55.54],[12.2,55.5],[12.2,55.44],[12.22,55.42],[12.3,55.4],[12.36,55.4]]],[[[12.34,54.96],[12.32,54.96],[12.26,54.92],[12.18,54.88],[12.16,54.88],[12.12,54.9],[12.14,54.96],[12.18,54.98],[12.32,55.04],[12.4,55.04],[12.46,55.02],[12.5,55.02],[12.54,55],[12.56,54.96],[12.54,54.94],[12.5,54.94],[12.46,54.96],[12.34,54.96]]],[[[11.92,54.58],[11.88,54.66],[11.88,54.68],[11.9,54.7],[11.9,54.72],[11.86,54.78],[11.8,54.84],[11.78,54.84],[11.76,54.86],[11.72,54.94],[11.74,54.96],[11.84,54.96],[11.86,54.94],[12,54.9],[12.08,54.9],[12.1,54.88],[12.14,54.86],[12.16,54.84],[12.12,54.8],[12.08,54.8],[12.08,54.78],[12.06,54.78],[11.98,54.72],[11.98,54.7],[11.96,54.7],[11.96,54.6],[11.98,54.58],[11.98,54.56],[11.94,54.56],[11.92,54.58]]],[[[11.12,54.96],[11.24,54.96],[11.28,54.94],[11.34,54.92],[11.34,54.9],[11.36,54.88],[11.4,54.86],[11.52,54.82],[11.56,54.82],[11.64,54.88],[11.66,54.9],[11.7,54.88],[11.74,54.86],[11.84,54.76],[11.86,54.74],[11.86,54.68],[11.84,54.66],[11.78,54.64],[11.72,54.64],[11.72,54.66],[11.58,54.66],[11.52,54.64],[11.46,54.62],[11.38,54.64],[11.36,54.66],[11.32,54.68],[11.28,54.7],[11.26,54.7],[11.24,54.72],[11.2,54.72],[11.14,54.74],[11.1,54.74],[11.02,54.76],[11,54.78],[11.02,54.82],[11.02,54.9],[11.04,54.92],[11.06,54.94],[11.12,54.96]]],[[[11.14,57.34],[11.2,57.32],[11.08,57.26],[11.06,57.24],[11.02,57.24],[11,57.22],[10.96,57.24],[10.94,57.26],[10.92,57.26],[10.9,57.24],[10.88,57.24],[10.86,57.26],[10.92,57.3],[11.02,57.32],[11.14,57.34]]],[[[8.52,56.66],[8.54,56.68],[8.58,56.68],[8.6,56.64],[8.6,56.6],[8.54,56.58],[8.48,56.64],[8.46,56.64],[8.4,56.68],[8.36,56.68],[8.24,56.7],[8.24,56.8],[8.26,56.82],[8.3,56.86],[8.34,56.9],[8.38,56.94],[8.46,57],[8.58,57.1],[8.62,57.12],[8.64,57.12],[8.72,57.1],[8.84,57.1],[8.9,57.12],[9.02,57.16],[9.08,57.14],[9.26,57.14],[9.4,57.16],[9.46,57.18],[9.5,57.2],[9.54,57.22],[9.58,57.24],[9.64,57.3],[9.7,57.36],[9.72,57.38],[9.76,57.44],[9.8,57.46],[9.96,57.58],[10.1,57.58],[10.12,57.6],[10.22,57.6],[10.26,57.62],[10.3,57.62],[10.4,57.68],[10.46,57.7],[10.52,57.72],[10.54,57.74],[10.64,57.74],[10.62,57.72],[10.56,57.7],[10.52,57.68],[10.5,57.66],[10.48,57.64],[10.46,57.62],[10.44,57.6],[10.44,57.54],[10.52,57.42],[10.52,57.22],[10.44,57.18],[10.42,57.16],[10.34,57],[10.2,57],[10.16,57.02],[10.12,57.04],[10.02,57.08],[9.98,57.08],[10.12,57.02],[10.16,57],[10.18,57],[10.22,56.98],[10.3,56.98],[10.28,56.96],[10.26,56.92],[10.28,56.82],[10.28,56.8],[10.3,56.74],[10.24,56.72],[10.16,56.72],[9.86,56.66],[9.88,56.64],[9.94,56.64],[10,56.66],[10.08,56.68],[10.18,56.7],[10.34,56.7],[10.36,56.68],[10.36,56.64],[10.32,56.62],[10.3,56.62],[10.28,56.6],[10.24,56.58],[10.22,56.54],[10.18,56.46],[10.22,56.48],[10.22,56.5],[10.24,56.54],[10.3,56.58],[10.32,56.56],[10.36,56.56],[10.42,56.52],[10.5,56.52],[10.52,56.5],[10.54,56.5],[10.58,56.52],[10.64,56.52],[10.76,56.54],[10.78,56.54],[10.84,56.52],[10.86,56.52],[10.96,56.44],[10.92,56.34],[10.9,56.32],[10.74,56.16],[10.68,56.2],[10.68,56.22],[10.62,56.22],[10.58,56.2],[10.56,56.16],[10.58,56.12],[10.54,56.1],[10.52,56.1],[10.4,56.16],[10.36,56.2],[10.44,56.22],[10.48,56.22],[10.5,56.28],[10.44,56.3],[10.4,56.3],[10.24,56.18],[10.22,56.14],[10.24,56.12],[10.26,56.08],[10.28,56.02],[10.26,55.92],[10.18,55.82],[10.14,55.84],[10.12,55.86],[10.1,55.88],[9.98,55.88],[9.86,55.84],[9.88,55.84],[9.92,55.82],[10.04,55.82],[10.04,55.76],[10,55.7],[9.84,55.68],[9.74,55.68],[9.68,55.7],[9.64,55.72],[9.56,55.7],[9.62,55.7],[9.64,55.68],[9.72,55.66],[9.82,55.6],[9.7,55.54],[9.58,55.42],[9.6,55.4],[9.6,55.36],[9.56,55.36],[9.54,55.38],[9.48,55.38],[9.46,55.36],[9.42,55.36],[9.38,55.38],[9.24,55.38],[9.22,55.4],[9.18,55.42],[9.16,55.44],[9.08,55.44],[9.02,55.46],[8.96,55.46],[8.9,55.44],[8.88,55.42],[8.82,55.42],[8.82,55.36],[8.84,55.34],[8.86,55.32],[8.88,55.3],[8.88,55.28],[8.7,55.28],[8.66,55.3],[8.66,55.32],[8.64,55.4],[8.62,55.44],[8.54,55.44],[8.48,55.46],[8.44,55.46],[8.3,55.56],[8.26,55.5],[8.1,55.56],[8.12,55.6],[8.14,55.62],[8.18,55.72],[8.18,55.76],[8.16,55.84],[8.16,55.9],[8.14,55.94],[8.14,55.96],[8.12,55.98],[8.14,55.98],[8.16,55.94],[8.16,55.92],[8.18,55.9],[8.18,55.84],[8.2,55.82],[8.28,55.84],[8.32,55.86],[8.4,55.9],[8.38,55.92],[8.32,56.02],[8.32,56.06],[8.26,56.08],[8.22,56.1],[8.14,56.1],[8.14,56.08],[8.12,56],[8.1,56.02],[8.1,56.12],[8.12,56.34],[8.12,56.54],[8.16,56.64],[8.18,56.66],[8.2,56.7],[8.22,56.7],[8.24,56.68],[8.22,56.66],[8.2,56.64],[8.24,56.6],[8.32,56.58],[8.42,56.58],[8.48,56.56],[8.52,56.54],[8.6,56.5],[8.64,56.48],[8.74,56.48],[8.76,56.56],[8.72,56.58],[8.68,56.62],[8.84,56.72],[8.86,56.76],[8.96,56.8],[9.12,56.8],[9.14,56.7],[9.06,56.62],[9.04,56.6],[9.06,56.56],[9.1,56.58],[9.1,56.6],[9.18,56.62],[9.22,56.64],[9.24,56.64],[9.28,56.62],[9.26,56.58],[9.28,56.56],[9.32,56.52],[9.38,56.56],[9.36,56.56],[9.32,56.68],[9.3,56.7],[9.26,56.7],[9.18,56.68],[9.16,56.9],[9.18,56.92],[9.3,57],[9.22,57],[9.2,57.02],[9.18,57.02],[9.16,57.04],[9.14,57.04],[9.12,57.06],[9.12,57.04],[9.02,57.02],[8.88,57],[8.82,56.98],[8.76,56.96],[8.72,56.96],[8.68,56.94],[8.62,56.88],[8.62,56.86],[8.56,56.82],[8.54,56.8],[8.5,56.8],[8.48,56.78],[8.46,56.7],[8.42,56.68],[8.48,56.68],[8.52,56.66]],[[9.98,57.08],[9.5,57.04],[9.4,57.02],[9.52,57.02],[9.56,57],[9.68,57.04],[9.76,57.06],[9.8,57.06],[9.86,57.04],[9.96,57.06],[9.98,57.08]],[[9.4,57.02],[9.36,57.02],[9.32,57],[9.4,57.02]]],[[[8.54,56.8],[8.62,56.84],[8.66,56.9],[8.82,56.9],[8.82,56.92],[8.84,56.94],[8.86,56.96],[8.9,56.96],[8.92,56.92],[8.88,56.8],[8.84,56.74],[8.76,56.7],[8.74,56.68],[8.66,56.68],[8.64,56.7],[8.6,56.72],[8.56,56.74],[8.52,56.74],[8.52,56.76],[8.54,56.8]]],[[[10.68,54.76],[10.66,54.8],[10.66,54.84],[10.68,54.9],[10.7,54.92],[10.74,54.96],[10.76,54.98],[10.8,54.98],[10.86,55.04],[10.88,55.1],[10.9,55.14],[10.94,55.16],[10.96,55.16],[10.94,55.08],[10.92,55.02],[10.9,55],[10.88,54.98],[10.86,54.96],[10.84,54.94],[10.78,54.84],[10.76,54.78],[10.7,54.72],[10.68,54.74],[10.68,54.76]]],[[[10.74,55.5],[10.8,55.36],[10.84,55.3],[10.82,55.2],[10.78,55.12],[10.74,55.06],[10.6,55.06],[10.52,55.02],[10.5,55.02],[10.16,55.08],[10.14,55.12],[10.16,55.12],[10.12,55.18],[10,55.2],[9.9,55.28],[9.88,55.34],[9.82,55.44],[9.76,55.46],[9.72,55.48],[9.68,55.5],[9.74,55.54],[9.82,55.54],[9.84,55.52],[9.88,55.5],[9.9,55.5],[9.92,55.52],[10,55.54],[10.08,55.56],[10.12,55.56],[10.14,55.58],[10.18,55.58],[10.22,55.6],[10.3,55.62],[10.32,55.62],[10.4,55.58],[10.48,55.54],[10.48,55.52],[10.44,55.48],[10.42,55.46],[10.42,55.44],[10.48,55.44],[10.6,55.48],[10.62,55.52],[10.62,55.62],[10.66,55.58],[10.74,55.5]]],[[[10.52,54.98],[10.5,55],[10.62,55.04],[10.68,54.98],[10.62,54.96],[10.56,54.94],[10.52,54.98]]],[[[10.56,55.96],[10.62,55.88],[10.62,55.86],[10.66,55.86],[10.6,55.76],[10.52,55.76],[10.52,55.98],[10.56,56],[10.56,55.96]]],[[[10.28,54.94],[10.3,54.92],[10.44,54.86],[10.44,54.84],[10.4,54.82],[10.24,54.9],[10.18,54.96],[10.28,54.94]]]]},"properties":{"From":1865,"To":1885,"Id":390,"Holder":390,"Name":"Denmark","Status":"independent","Area":38483.1542743106,"Capital":"Copenhagen","capital_geom":"POINT (12.566982 55.67696)","centroid_geom":"POINT (10.125083099503563 56.04951483320143)"}},{"type":"Feature","geometry":{"type":"MultiPolygon","coordinates":[[[[15,55.18],[15.06,55.16],[15.1,55.16],[15.14,55.14],[15.14,55.08],[15.1,55.02],[15.08,55],[15.04,55],[14.94,55.02],[14.88,55.02],[14.74,55.06],[14.72,55.08],[14.68,55.1],[14.7,55.22],[14.74,55.3],[14.76,55.3],[14.8,55.28],[14.82,55.26],[14.84,55.26],[14.88,55.22],[15,55.18]]],[[[12.52,55.64],[12.5,55.64],[12.5,55.6],[12.44,55.62],[12.38,55.62],[12.38,55.6],[12.34,55.6],[12.26,55.56],[12.24,55.54],[12.2,55.5],[12.2,55.44],[12.22,55.42],[12.3,55.4],[12.38,55.4],[12.4,55.38],[12.44,55.36],[12.46,55.34],[12.46,55.28],[12.44,55.28],[12.42,55.26],[12.32,55.24],[12.24,55.24],[12.2,55.22],[12.18,55.22],[12.04,55.18],[12.02,55.16],[12.06,55.14],[12.08,55.12],[12.1,55.12],[12.12,55.14],[12.14,55.14],[12.18,55.12],[12.16,55],[12.08,54.96],[12.02,54.96],[12,54.98],[11.98,54.98],[11.96,55],[11.92,55],[11.9,54.98],[11.86,55.02],[11.84,55.02],[11.74,55.06],[11.78,55.14],[11.8,55.16],[11.74,55.2],[11.68,55.2],[11.66,55.18],[11.62,55.18],[11.54,55.2],[11.52,55.2],[11.46,55.22],[11.4,55.22],[11.36,55.2],[11.32,55.18],[11.28,55.2],[11.26,55.2],[11.18,55.34],[11.22,55.4],[11.2,55.44],[11.14,55.56],[11.14,55.58],[11.08,55.66],[11.08,55.68],[11,55.7],[10.88,55.74],[10.94,55.74],[11.14,55.72],[11.16,55.7],[11.22,55.7],[11.34,55.74],[11.48,55.84],[11.5,55.84],[11.5,55.88],[11.52,55.88],[11.52,55.9],[11.5,55.92],[11.5,55.94],[11.36,55.94],[11.28,55.98],[11.32,55.98],[11.4,55.96],[11.6,55.94],[11.66,55.94],[11.7,55.96],[11.78,55.96],[11.74,55.92],[11.68,55.9],[11.68,55.82],[11.72,55.8],[11.76,55.76],[11.8,55.68],[11.8,55.66],[11.82,55.68],[11.84,55.7],[11.84,55.76],[11.92,55.92],[11.96,55.92],[12,55.9],[12.04,55.8],[12.06,55.74],[12.06,55.72],[11.98,55.72],[11.94,55.68],[11.94,55.66],[12.06,55.66],[12.1,55.7],[12.1,55.72],[12.08,55.74],[12.08,55.76],[12.04,55.92],[12.02,55.96],[11.94,55.96],[11.88,55.94],[11.84,55.96],[11.86,55.96],[11.92,56],[12.18,56.1],[12.2,56.12],[12.34,56.12],[12.52,56.08],[12.54,56.08],[12.62,56.04],[12.58,56],[12.52,55.94],[12.52,55.92],[12.56,55.86],[12.58,55.84],[12.6,55.8],[12.6,55.76],[12.58,55.74],[12.6,55.7],[12.56,55.66],[12.54,55.66],[12.52,55.64]]],[[[12.14,54.96],[12.18,54.98],[12.32,55.04],[12.4,55.04],[12.46,55.02],[12.5,55.02],[12.54,55],[12.56,54.96],[12.54,54.94],[12.5,54.94],[12.46,54.96],[12.34,54.96],[12.32,54.94],[12.26,54.92],[12.18,54.88],[12.16,54.88],[12.12,54.9],[12.14,54.96]]],[[[12.14,54.86],[12.16,54.84],[12.12,54.8],[12.08,54.8],[12.08,54.78],[12.06,54.78],[11.98,54.72],[11.98,54.7],[11.96,54.7],[11.96,54.6],[11.98,54.58],[11.98,54.56],[11.94,54.56],[11.92,54.58],[11.88,54.66],[11.88,54.68],[11.9,54.7],[11.9,54.72],[11.86,54.78],[11.8,54.84],[11.78,54.84],[11.76,54.86],[11.72,54.94],[11.74,54.96],[11.84,54.96],[11.86,54.94],[12,54.9],[12.08,54.9],[12.1,54.88],[12.14,54.86]]],[[[11.28,54.7],[11.26,54.7],[11.24,54.72],[11.2,54.72],[11.14,54.74],[11.1,54.74],[11.02,54.76],[11,54.78],[11.02,54.82],[11.02,54.9],[11.04,54.92],[11.06,54.94],[11.12,54.96],[11.24,54.96],[11.28,54.94],[11.34,54.92],[11.34,54.9],[11.36,54.88],[11.4,54.86],[11.52,54.82],[11.56,54.82],[11.64,54.88],[11.66,54.9],[11.7,54.88],[11.74,54.86],[11.84,54.76],[11.86,54.74],[11.86,54.68],[11.84,54.66],[11.78,54.64],[11.72,54.64],[11.72,54.66],[11.58,54.66],[11.52,54.64],[11.46,54.62],[11.38,54.64],[11.36,54.66],[11.32,54.68],[11.28,54.7]]],[[[11.2,57.32],[11.08,57.26],[11.06,57.24],[11.02,57.22],[10.98,57.22],[10.96,57.24],[10.94,57.26],[10.92,57.26],[10.9,57.24],[10.88,57.24],[10.86,57.26],[10.92,57.3],[11.02,57.32],[11.14,57.34],[11.2,57.32]]],[[[8.5,56.8],[8.48,56.78],[8.46,56.7],[8.42,56.68],[8.48,56.68],[8.52,56.66],[8.54,56.68],[8.58,56.68],[8.6,56.64],[8.6,56.6],[8.54,56.58],[8.48,56.64],[8.46,56.64],[8.4,56.68],[8.36,56.68],[8.24,56.7],[8.24,56.8],[8.26,56.82],[8.3,56.86],[8.34,56.9],[8.38,56.94],[8.46,57],[8.58,57.1],[8.62,57.12],[8.64,57.12],[8.72,57.1],[8.84,57.1],[8.9,57.12],[9.02,57.16],[9.08,57.14],[9.26,57.14],[9.4,57.16],[9.46,57.18],[9.5,57.2],[9.54,57.22],[9.58,57.24],[9.64,57.3],[9.7,57.36],[9.72,57.38],[9.76,57.44],[9.8,57.46],[9.96,57.58],[10.1,57.58],[10.12,57.6],[10.22,57.6],[10.26,57.62],[10.3,57.62],[10.4,57.68],[10.46,57.7],[10.52,57.72],[10.54,57.74],[10.64,57.74],[10.62,57.72],[10.56,57.7],[10.52,57.68],[10.5,57.66],[10.48,57.64],[10.46,57.62],[10.44,57.6],[10.44,57.54],[10.52,57.42],[10.54,57.22],[10.44,57.18],[10.42,57.16],[10.34,57],[10.24,56.98],[10.3,56.98],[10.28,56.96],[10.26,56.92],[10.28,56.82],[10.28,56.8],[10.3,56.74],[10.24,56.72],[10.16,56.72],[9.86,56.66],[9.88,56.64],[9.94,56.64],[10,56.66],[10.08,56.68],[10.18,56.7],[10.34,56.7],[10.36,56.68],[10.36,56.64],[10.32,56.62],[10.3,56.62],[10.28,56.6],[10.24,56.58],[10.22,56.54],[10.18,56.46],[10.22,56.48],[10.22,56.5],[10.24,56.54],[10.3,56.58],[10.34,56.56],[10.36,56.56],[10.42,56.52],[10.5,56.52],[10.54,56.5],[10.58,56.52],[10.64,56.52],[10.76,56.54],[10.78,56.54],[10.84,56.52],[10.86,56.52],[10.96,56.44],[10.92,56.34],[10.9,56.32],[10.74,56.16],[10.68,56.2],[10.68,56.22],[10.62,56.22],[10.58,56.2],[10.56,56.16],[10.58,56.12],[10.54,56.1],[10.52,56.1],[10.4,56.16],[10.36,56.2],[10.44,56.22],[10.48,56.22],[10.5,56.28],[10.44,56.3],[10.4,56.3],[10.24,56.18],[10.22,56.14],[10.24,56.12],[10.26,56.08],[10.28,56.02],[10.26,55.92],[10.18,55.82],[10.14,55.84],[10.12,55.86],[10.1,55.88],[9.98,55.88],[9.86,55.84],[9.88,55.84],[9.92,55.82],[10.04,55.82],[10.04,55.76],[10,55.7],[9.84,55.68],[9.8,55.66],[9.74,55.68],[9.68,55.7],[9.64,55.72],[9.56,55.7],[9.62,55.7],[9.64,55.68],[9.72,55.66],[9.82,55.6],[9.7,55.54],[9.58,55.42],[9.6,55.4],[9.6,55.36],[9.56,55.36],[9.54,55.38],[9.48,55.38],[9.46,55.36],[9.42,55.36],[9.38,55.38],[9.24,55.38],[9.22,55.4],[9.18,55.42],[9.16,55.44],[9.08,55.44],[9.02,55.46],[8.96,55.46],[8.9,55.44],[8.88,55.42],[8.82,55.42],[8.82,55.36],[8.84,55.34],[8.86,55.32],[8.88,55.3],[8.88,55.28],[8.7,55.28],[8.66,55.3],[8.66,55.32],[8.64,55.4],[8.62,55.44],[8.54,55.44],[8.48,55.46],[8.44,55.46],[8.3,55.56],[8.26,55.5],[8.1,55.56],[8.12,55.6],[8.14,55.62],[8.18,55.72],[8.18,55.76],[8.16,55.84],[8.16,55.9],[8.14,55.94],[8.14,55.96],[8.12,55.98],[8.14,55.98],[8.16,55.94],[8.16,55.92],[8.18,55.9],[8.18,55.84],[8.2,55.82],[8.28,55.84],[8.32,55.86],[8.4,55.9],[8.38,55.92],[8.32,56.02],[8.32,56.06],[8.26,56.08],[8.22,56.1],[8.14,56.1],[8.14,56.08],[8.12,56],[8.1,56.02],[8.1,56.12],[8.12,56.34],[8.12,56.54],[8.16,56.64],[8.18,56.66],[8.2,56.7],[8.22,56.7],[8.24,56.68],[8.22,56.66],[8.2,56.64],[8.24,56.6],[8.32,56.58],[8.42,56.58],[8.48,56.56],[8.52,56.54],[8.6,56.5],[8.64,56.48],[8.74,56.5],[8.76,56.56],[8.72,56.58],[8.68,56.62],[8.84,56.72],[8.86,56.76],[8.96,56.8],[9.12,56.8],[9.14,56.7],[9.06,56.62],[9.04,56.6],[9.06,56.56],[9.1,56.58],[9.1,56.6],[9.18,56.62],[9.22,56.64],[9.24,56.64],[9.28,56.62],[9.26,56.58],[9.28,56.56],[9.32,56.52],[9.38,56.56],[9.36,56.56],[9.32,56.68],[9.3,56.7],[9.26,56.7],[9.18,56.68],[9.16,56.9],[9.18,56.92],[9.3,57],[9.22,57],[9.2,57.02],[9.18,57.02],[9.16,57.04],[9.14,57.04],[9.12,57.06],[9.12,57.04],[9.04,57.02],[8.88,57],[8.82,56.98],[8.76,56.96],[8.74,56.96],[8.68,56.94],[8.62,56.88],[8.62,56.86],[8.56,56.82],[8.54,56.8],[8.5,56.8]],[[10.24,56.98],[10.22,57],[10.2,57],[10.16,57.02],[10.12,57.04],[10.02,57.08],[9.98,57.08],[10.12,57.02],[10.16,57],[10.18,57],[10.22,56.98],[10.24,56.98]],[[9.98,57.08],[9.5,57.04],[9.4,57.02],[9.52,57.02],[9.56,57],[9.68,57.04],[9.76,57.06],[9.8,57.06],[9.86,57.04],[9.96,57.06],[9.98,57.08]],[[9.4,57.02],[9.36,57.02],[9.32,57],[9.4,57.02]]],[[[8.54,56.8],[8.62,56.84],[8.66,56.9],[8.82,56.9],[8.82,56.92],[8.84,56.94],[8.86,56.96],[8.9,56.96],[8.92,56.92],[8.88,56.8],[8.84,56.74],[8.76,56.7],[8.74,56.68],[8.66,56.68],[8.64,56.7],[8.6,56.72],[8.56,56.74],[8.52,56.74],[8.52,56.76],[8.54,56.8]]],[[[10.94,55.16],[10.96,55.16],[10.94,55.08],[10.92,55.02],[10.9,55],[10.88,54.98],[10.86,54.96],[10.84,54.94],[10.78,54.84],[10.76,54.78],[10.7,54.72],[10.68,54.74],[10.68,54.76],[10.66,54.8],[10.66,54.84],[10.68,54.9],[10.7,54.92],[10.74,54.96],[10.76,54.98],[10.8,54.98],[10.86,55.04],[10.88,55.1],[10.9,55.14],[10.94,55.16]]],[[[10.4,55.58],[10.48,55.54],[10.48,55.52],[10.44,55.48],[10.42,55.46],[10.42,55.44],[10.48,55.44],[10.6,55.48],[10.62,55.52],[10.62,55.62],[10.66,55.58],[10.74,55.5],[10.8,55.36],[10.84,55.3],[10.82,55.2],[10.78,55.12],[10.74,55.06],[10.6,55.06],[10.52,55.02],[10.5,55.02],[10.16,55.08],[10.14,55.12],[10.16,55.12],[10.12,55.18],[10,55.2],[9.9,55.28],[9.88,55.34],[9.82,55.44],[9.76,55.46],[9.72,55.48],[9.68,55.5],[9.74,55.54],[9.82,55.54],[9.84,55.52],[9.88,55.5],[9.9,55.5],[9.92,55.52],[10,55.54],[10.08,55.56],[10.12,55.56],[10.14,55.58],[10.18,55.58],[10.22,55.6],[10.3,55.62],[10.32,55.62],[10.4,55.58]]],[[[10.52,54.98],[10.5,55],[10.62,55.04],[10.68,54.98],[10.62,54.96],[10.56,54.94],[10.52,54.98]]],[[[10.52,55.76],[10.52,55.98],[10.56,56],[10.56,55.96],[10.62,55.88],[10.62,55.86],[10.66,55.86],[10.6,55.76],[10.52,55.76]]],[[[10.3,54.92],[10.44,54.86],[10.44,54.84],[10.4,54.82],[10.24,54.9],[10.18,54.96],[10.28,54.94],[10.3,54.92]]]]},"properties":{"From":1886,"To":1919,"Id":390,"Holder":390,"Name":"Denmark","Status":"independent","Area":38560.1551946023,"Capital":"Copenhagen","capital_geom":"POINT (12.566982 55.67696)","centroid_geom":"POINT (10.126413920202982 56.05006917019707)"}},{"type":"Feature","geometry":{"type":"MultiPolygon","coordinates":[[[[15,55.18],[15.06,55.16],[15.1,55.16],[15.14,55.14],[15.14,55.08],[15.1,55.02],[15.08,55],[15.04,55],[14.94,55.02],[14.88,55.02],[14.74,55.06],[14.72,55.08],[14.68,55.1],[14.7,55.22],[14.74,55.3],[14.76,55.3],[14.8,55.28],[14.82,55.26],[14.84,55.26],[14.88,55.22],[15,55.18]]],[[[12.52,55.64],[12.5,55.64],[12.5,55.6],[12.44,55.62],[12.38,55.62],[12.38,55.6],[12.34,55.6],[12.26,55.56],[12.24,55.54],[12.2,55.5],[12.2,55.44],[12.22,55.42],[12.3,55.4],[12.38,55.4],[12.4,55.38],[12.44,55.36],[12.46,55.34],[12.46,55.28],[12.44,55.28],[12.42,55.26],[12.32,55.24],[12.24,55.24],[12.2,55.22],[12.18,55.22],[12.04,55.18],[12.02,55.16],[12.06,55.14],[12.08,55.12],[12.1,55.12],[12.12,55.14],[12.14,55.14],[12.18,55.12],[12.16,55],[12.08,54.96],[12.02,54.96],[12,54.98],[11.98,54.98],[11.96,55],[11.92,55],[11.9,54.98],[11.86,55.02],[11.84,55.02],[11.74,55.06],[11.78,55.14],[11.8,55.16],[11.74,55.2],[11.68,55.2],[11.66,55.18],[11.62,55.18],[11.54,55.2],[11.52,55.2],[11.46,55.22],[11.4,55.22],[11.36,55.2],[11.32,55.18],[11.28,55.2],[11.26,55.2],[11.18,55.34],[11.22,55.4],[11.2,55.44],[11.14,55.56],[11.14,55.58],[11.08,55.66],[11.08,55.68],[11,55.7],[10.88,55.74],[10.94,55.74],[11.14,55.72],[11.16,55.7],[11.22,55.7],[11.34,55.74],[11.48,55.84],[11.5,55.84],[11.5,55.88],[11.52,55.88],[11.52,55.9],[11.5,55.92],[11.5,55.94],[11.36,55.94],[11.28,55.98],[11.32,55.98],[11.4,55.96],[11.6,55.94],[11.66,55.94],[11.7,55.96],[11.78,55.96],[11.74,55.92],[11.68,55.9],[11.68,55.82],[11.72,55.8],[11.76,55.76],[11.8,55.68],[11.8,55.66],[11.82,55.68],[11.84,55.7],[11.84,55.76],[11.92,55.92],[11.96,55.92],[12,55.9],[12.04,55.8],[12.06,55.74],[12.06,55.72],[11.98,55.72],[11.94,55.68],[11.94,55.66],[12.06,55.66],[12.1,55.7],[12.1,55.72],[12.08,55.74],[12.08,55.76],[12.04,55.92],[12.02,55.96],[11.94,55.96],[11.88,55.94],[11.84,55.96],[11.86,55.96],[11.92,56],[12.18,56.1],[12.2,56.12],[12.34,56.12],[12.52,56.08],[12.54,56.08],[12.62,56.04],[12.58,56],[12.52,55.94],[12.52,55.92],[12.56,55.86],[12.58,55.84],[12.6,55.8],[12.6,55.76],[12.58,55.74],[12.6,55.7],[12.56,55.66],[12.54,55.66],[12.52,55.64]]],[[[12.18,54.98],[12.32,55.04],[12.4,55.04],[12.46,55.02],[12.5,55.02],[12.54,55],[12.56,54.96],[12.54,54.94],[12.5,54.94],[12.46,54.96],[12.34,54.96],[12.32,54.94],[12.26,54.92],[12.18,54.88],[12.16,54.88],[12.12,54.9],[12.14,54.96],[12.18,54.98]]],[[[12.14,54.86],[12.16,54.84],[12.12,54.8],[12.08,54.8],[12.08,54.78],[12.06,54.78],[11.98,54.72],[11.98,54.7],[11.96,54.7],[11.96,54.6],[11.98,54.58],[11.98,54.56],[11.94,54.56],[11.92,54.58],[11.88,54.66],[11.88,54.68],[11.9,54.7],[11.9,54.72],[11.86,54.78],[11.8,54.84],[11.78,54.84],[11.76,54.86],[11.72,54.94],[11.74,54.96],[11.84,54.96],[11.86,54.94],[12,54.9],[12.08,54.9],[12.1,54.88],[12.14,54.86]]],[[[11.28,54.7],[11.26,54.7],[11.24,54.72],[11.2,54.72],[11.14,54.74],[11.1,54.74],[11.02,54.76],[11,54.78],[11.02,54.82],[11.02,54.9],[11.04,54.92],[11.06,54.94],[11.12,54.96],[11.24,54.96],[11.28,54.94],[11.34,54.92],[11.34,54.9],[11.36,54.88],[11.4,54.86],[11.52,54.82],[11.56,54.82],[11.64,54.88],[11.66,54.9],[11.7,54.88],[11.74,54.86],[11.84,54.76],[11.86,54.74],[11.86,54.68],[11.84,54.66],[11.78,54.64],[11.72,54.64],[11.72,54.66],[11.58,54.66],[11.52,54.64],[11.46,54.62],[11.38,54.64],[11.36,54.66],[11.32,54.68],[11.28,54.7]]],[[[11.2,57.32],[11.08,57.26],[11.06,57.24],[11.02,57.22],[10.98,57.22],[10.96,57.24],[10.94,57.26],[10.92,57.26],[10.9,57.24],[10.88,57.24],[10.86,57.26],[10.92,57.3],[11.02,57.32],[11.14,57.34],[11.2,57.32]]],[[[8.5,56.8],[8.48,56.78],[8.46,56.7],[8.42,56.68],[8.48,56.68],[8.52,56.66],[8.54,56.68],[8.58,56.68],[8.6,56.64],[8.6,56.6],[8.54,56.58],[8.48,56.64],[8.46,56.64],[8.4,56.68],[8.36,56.68],[8.24,56.7],[8.24,56.8],[8.26,56.82],[8.3,56.86],[8.34,56.9],[8.38,56.94],[8.46,57],[8.58,57.1],[8.62,57.12],[8.64,57.12],[8.72,57.1],[8.84,57.1],[8.9,57.12],[9.02,57.16],[9.08,57.14],[9.26,57.14],[9.4,57.16],[9.46,57.18],[9.5,57.2],[9.54,57.22],[9.58,57.24],[9.64,57.3],[9.7,57.36],[9.72,57.38],[9.76,57.44],[9.8,57.46],[9.96,57.58],[10.1,57.58],[10.12,57.6],[10.22,57.6],[10.26,57.62],[10.3,57.62],[10.4,57.68],[10.46,57.7],[10.52,57.72],[10.54,57.74],[10.64,57.74],[10.62,57.72],[10.56,57.7],[10.52,57.68],[10.5,57.66],[10.48,57.64],[10.46,57.62],[10.44,57.6],[10.44,57.54],[10.52,57.42],[10.54,57.22],[10.44,57.18],[10.42,57.16],[10.34,57],[10.24,56.98],[10.3,56.98],[10.28,56.96],[10.26,56.92],[10.28,56.82],[10.28,56.8],[10.3,56.74],[10.24,56.72],[10.16,56.72],[9.86,56.66],[9.88,56.64],[9.94,56.64],[10,56.66],[10.08,56.68],[10.18,56.7],[10.34,56.7],[10.36,56.68],[10.36,56.64],[10.32,56.62],[10.3,56.62],[10.28,56.6],[10.24,56.58],[10.22,56.54],[10.18,56.46],[10.22,56.48],[10.22,56.5],[10.24,56.54],[10.3,56.58],[10.34,56.56],[10.36,56.56],[10.42,56.52],[10.5,56.52],[10.54,56.5],[10.58,56.52],[10.64,56.52],[10.76,56.54],[10.78,56.54],[10.84,56.52],[10.86,56.52],[10.96,56.44],[10.92,56.34],[10.9,56.32],[10.74,56.16],[10.68,56.2],[10.68,56.22],[10.62,56.22],[10.58,56.2],[10.56,56.16],[10.58,56.12],[10.54,56.1],[10.52,56.1],[10.4,56.16],[10.36,56.2],[10.44,56.22],[10.48,56.22],[10.5,56.28],[10.44,56.3],[10.4,56.3],[10.24,56.18],[10.22,56.14],[10.24,56.12],[10.26,56.08],[10.28,56.02],[10.26,55.92],[10.18,55.82],[10.14,55.84],[10.12,55.86],[10.1,55.88],[9.98,55.88],[9.86,55.84],[9.88,55.84],[9.92,55.82],[10.04,55.82],[10.04,55.76],[10,55.7],[9.84,55.68],[9.8,55.66],[9.74,55.68],[9.68,55.7],[9.64,55.72],[9.56,55.7],[9.62,55.7],[9.64,55.68],[9.72,55.66],[9.82,55.6],[9.7,55.54],[9.58,55.42],[9.6,55.4],[9.6,55.36],[9.68,55.28],[9.7,55.26],[9.72,55.24],[9.68,55.2],[9.64,55.18],[9.62,55.2],[9.58,55.18],[9.48,55.16],[9.46,55.12],[9.5,55.06],[9.54,55.04],[9.64,55.02],[9.72,54.98],[9.74,54.94],[9.76,54.9],[9.74,54.84],[9.62,54.86],[9.62,54.9],[9.64,54.9],[9.64,54.92],[9.6,54.92],[9.5,54.86],[9.46,54.84],[9.44,54.82],[9.42,54.84],[9.38,54.82],[9.24,54.82],[9.22,54.84],[9.16,54.86],[9.06,54.88],[8.92,54.9],[8.84,54.92],[8.78,54.9],[8.7,54.9],[8.66,54.92],[8.66,54.98],[8.68,55.12],[8.56,55.1],[8.5,55.06],[8.46,55.08],[8.46,55.12],[8.48,55.18],[8.5,55.2],[8.56,55.2],[8.6,55.18],[8.56,55.16],[8.58,55.14],[8.68,55.14],[8.68,55.16],[8.66,55.2],[8.66,55.32],[8.64,55.4],[8.62,55.44],[8.54,55.44],[8.48,55.46],[8.44,55.46],[8.3,55.56],[8.26,55.5],[8.1,55.56],[8.12,55.6],[8.14,55.62],[8.18,55.72],[8.18,55.76],[8.16,55.84],[8.16,55.9],[8.14,55.94],[8.14,55.96],[8.12,55.98],[8.14,55.98],[8.16,55.94],[8.16,55.92],[8.18,55.9],[8.18,55.84],[8.2,55.82],[8.28,55.84],[8.32,55.86],[8.4,55.9],[8.38,55.92],[8.32,56.02],[8.32,56.06],[8.26,56.08],[8.22,56.1],[8.14,56.1],[8.14,56.08],[8.12,56],[8.1,56.02],[8.1,56.12],[8.12,56.34],[8.12,56.54],[8.16,56.64],[8.18,56.66],[8.2,56.7],[8.22,56.7],[8.24,56.68],[8.22,56.66],[8.2,56.64],[8.24,56.6],[8.32,56.58],[8.42,56.58],[8.48,56.56],[8.52,56.54],[8.6,56.5],[8.64,56.48],[8.74,56.5],[8.76,56.56],[8.72,56.58],[8.68,56.62],[8.84,56.72],[8.86,56.76],[8.96,56.8],[9.12,56.8],[9.14,56.7],[9.06,56.62],[9.04,56.6],[9.06,56.56],[9.1,56.58],[9.1,56.6],[9.18,56.62],[9.22,56.64],[9.24,56.64],[9.28,56.62],[9.26,56.58],[9.28,56.56],[9.32,56.52],[9.38,56.56],[9.36,56.56],[9.32,56.68],[9.3,56.7],[9.26,56.7],[9.18,56.68],[9.16,56.9],[9.18,56.92],[9.3,57],[9.22,57],[9.2,57.02],[9.18,57.02],[9.16,57.04],[9.14,57.04],[9.12,57.06],[9.12,57.04],[9.04,57.02],[8.88,57],[8.82,56.98],[8.76,56.96],[8.74,56.96],[8.68,56.94],[8.62,56.88],[8.62,56.86],[8.56,56.82],[8.54,56.8],[8.5,56.8]],[[10.24,56.98],[10.22,57],[10.2,57],[10.16,57.02],[10.12,57.04],[10.02,57.08],[9.98,57.08],[10.12,57.02],[10.16,57],[10.18,57],[10.22,56.98],[10.24,56.98]],[[9.98,57.08],[9.5,57.04],[9.4,57.02],[9.52,57.02],[9.56,57],[9.68,57.04],[9.76,57.06],[9.8,57.06],[9.86,57.04],[9.96,57.06],[9.98,57.08]],[[9.4,57.02],[9.36,57.02],[9.32,57],[9.4,57.02]]],[[[8.54,56.8],[8.62,56.84],[8.66,56.9],[8.82,56.9],[8.82,56.92],[8.84,56.94],[8.86,56.96],[8.9,56.96],[8.92,56.92],[8.88,56.8],[8.84,56.74],[8.76,56.7],[8.74,56.68],[8.66,56.68],[8.64,56.7],[8.6,56.72],[8.56,56.74],[8.52,56.74],[8.52,56.76],[8.54,56.8]]],[[[10.96,55.16],[10.94,55.08],[10.92,55.02],[10.9,55],[10.88,54.98],[10.86,54.96],[10.84,54.94],[10.78,54.84],[10.76,54.78],[10.7,54.72],[10.68,54.74],[10.68,54.76],[10.66,54.8],[10.66,54.84],[10.68,54.9],[10.7,54.92],[10.74,54.96],[10.76,54.98],[10.8,54.98],[10.86,55.04],[10.88,55.1],[10.9,55.14],[10.94,55.16],[10.96,55.16]]],[[[10.4,55.58],[10.48,55.54],[10.48,55.52],[10.44,55.48],[10.42,55.46],[10.42,55.44],[10.48,55.44],[10.6,55.48],[10.62,55.52],[10.62,55.62],[10.66,55.58],[10.74,55.5],[10.8,55.36],[10.84,55.3],[10.82,55.2],[10.78,55.12],[10.74,55.06],[10.6,55.06],[10.52,55.02],[10.5,55.02],[10.16,55.08],[10.14,55.12],[10.16,55.12],[10.12,55.18],[10,55.2],[9.9,55.28],[9.88,55.34],[9.82,55.44],[9.76,55.46],[9.72,55.48],[9.68,55.5],[9.74,55.54],[9.82,55.54],[9.84,55.52],[9.88,55.5],[9.9,55.5],[9.92,55.52],[10,55.54],[10.08,55.56],[10.12,55.56],[10.14,55.58],[10.18,55.58],[10.22,55.6],[10.3,55.62],[10.32,55.62],[10.4,55.58]]],[[[10.52,54.98],[10.5,55],[10.62,55.04],[10.68,54.98],[10.62,54.96],[10.56,54.94],[10.52,54.98]]],[[[10.52,55.76],[10.52,55.98],[10.56,56],[10.56,55.96],[10.62,55.88],[10.62,55.86],[10.66,55.86],[10.6,55.76],[10.52,55.76]]],[[[10.3,54.92],[10.44,54.86],[10.44,54.84],[10.4,54.82],[10.24,54.9],[10.18,54.96],[10.28,54.94],[10.3,54.92]]],[[[9.8,54.9],[9.78,54.9],[9.78,54.92],[9.76,54.96],[9.76,54.98],[9.78,54.96],[9.82,54.94],[9.84,54.94],[9.84,54.98],[9.8,55.02],[9.74,55.02],[9.72,55],[9.7,55.02],[9.68,55.02],[9.64,55.06],[9.66,55.06],[9.72,55.08],[9.8,55.08],[9.96,55.02],[10,54.98],[10.04,54.94],[10.08,54.88],[9.98,54.86],[9.94,54.86],[9.9,54.88],[9.8,54.9]]]]},"properties":{"From":1920,"To":2023,"Id":390,"Holder":390,"Name":"Denmark","Status":"independent","Area":42498.4495591273,"Capital":"Copenhagen","capital_geom":"POINT (12.566982 55.67696)","centroid_geom":"POINT (10.04343018194481 55.96506768520939)"}}]}
