{
 "type": "FeatureCollection",
 "features": [
  {
   "type": "Feature",
   "properties": {
    "civ": "shang",
    "from": -1600,
    "to": -1046,
    "precision": 1,
    "note": "Approximate core of Shang archaeological culture"
   },
   "geometry": {
    "type": "Polygon",
    "coordinates": [
     [
      [
       113,
       34
      ],
      [
       116,
       34
      ],
      [
       117,
       36
      ],
      [
       116,
       38
      ],
      [
       114,
       38
      ],
      [
       112,
       37
      ],
      [
       111,
       35
      ],
      [
       113,
       34
      ]
     ]
    ]
   }
  },
  {
   "type": "Feature",
   "properties": {
    "civ": "western-zhou",
    "from": -1046,
    "to": -771,
    "precision": 1,
    "note": "Approximate extent of Western Zhou feudal domain"
   },
   "geometry": {
    "type": "Polygon",
    "coordinates": [
     [
      [
       108,
       33
      ],
      [
       114,
       33
      ],
      [
       118,
       36
      ],
      [
       117,
       39
      ],
      [
       113,
       40
      ],
      [
       108,
       38
      ],
      [
       106,
       36
      ],
      [
       108,
       33
      ]
     ]
    ]
   }
  },
  {
   "type": "Feature",
   "properties": {
    "civ": "qin",
    "from": -221,
    "to": -206,
    "precision": 1,
    "note": "Approximate extent of unified Qin empire"
   },
   "geometry": {
    "type": "Polygon",
    "coordinates": [
     [
      [
       104,
       25
      ],
      [
       112,
       22
      ],
      [
       120,
       25
      ],
      [
       122,
       32
      ],
      [
       120,
       38
      ],
      [
       118,
       41
      ],
      [
       112,
       42
      ],
      [
       106,
       40
      ],
      [
       102,
       36
      ],
      [
       102,
       30
      ],
      [
       104,
       25
      ]
     ]
    ]
   }
  },
  {
   "type": "Feature",
   "properties": {
    "civ": "han-dynasty",
    "from": -206,
    "to": 220,
    "precision": 1,
    "note": "Qwen's Western Han polygon, used for the whole Han (the site treats the Han as one polity)"
   },
   "geometry": {
    "type": "Polygon",
    "coordinates": [
     [
      [
       95,
       35
      ],
      [
       105,
       22
      ],
      [
       115,
       20
      ],
      [
       122,
       25
      ],
      [
       125,
       32
      ],
      [
       122,
       40
      ],
      [
       118,
       43
      ],
      [
       110,
       44
      ],
      [
       100,
       42
      ],
      [
       95,
       38
      ],
      [
       95,
       35
      ]
     ]
    ]
   }
  },
  {
   "type": "Feature",
   "properties": {
    "civ": "xin",
    "from": 9,
    "to": 23,
    "precision": 1,
    "note": "the Han polygon: the Xin held the same territory"
   },
   "geometry": {
    "type": "Polygon",
    "coordinates": [
     [
      [
       95,
       35
      ],
      [
       105,
       22
      ],
      [
       115,
       20
      ],
      [
       122,
       25
      ],
      [
       125,
       32
      ],
      [
       122,
       40
      ],
      [
       118,
       43
      ],
      [
       110,
       44
      ],
      [
       100,
       42
      ],
      [
       95,
       38
      ],
      [
       95,
       35
      ]
     ]
    ]
   }
  },
  {
   "type": "Feature",
   "properties": {
    "civ": "tang",
    "from": 618,
    "to": 755,
    "precision": 1,
    "note": "Approximate extent of Tang before An Lushan Rebellion"
   },
   "geometry": {
    "type": "Polygon",
    "coordinates": [
     [
      [
       75,
       35
      ],
      [
       90,
       22
      ],
      [
       105,
       18
      ],
      [
       120,
       22
      ],
      [
       125,
       30
      ],
      [
       125,
       40
      ],
      [
       120,
       43
      ],
      [
       110,
       43
      ],
      [
       95,
       43
      ],
      [
       80,
       42
      ],
      [
       75,
       38
      ],
      [
       75,
       35
      ]
     ]
    ]
   }
  },
  {
   "type": "Feature",
   "properties": {
    "civ": "song-dynasty",
    "from": 960,
    "to": 1127,
    "precision": 1,
    "note": "Northern Song before the loss of the north to the Jin; the northern edge clipped from 42 to 40 degrees, since the Sixteen Prefectures around Beijing were Liao"
   },
   "geometry": {
    "type": "Polygon",
    "coordinates": [
     [
      [
       103,
       30
      ],
      [
       110,
       22
      ],
      [
       120,
       22
      ],
      [
       122,
       30
      ],
      [
       122,
       38
      ],
      [
       118,
       40
      ],
      [
       112,
       40
      ],
      [
       105,
       40
      ],
      [
       103,
       35
      ],
      [
       103,
       30
      ]
     ]
    ]
   }
  }
 ]
}
