{
 "type": "FeatureCollection",
 "features": [
  {
   "type": "Feature",
   "properties": {
    "civ": "cao-wei",
    "from": 220,
    "to": 265,
    "precision": 1,
    "note": "coarse extent drawn by the site after Tan Qixiang's Historical Atlas of China; not a surveyed border"
   },
   "geometry": {
    "type": "Polygon",
    "coordinates": [
     [
      [
       95,
       40
      ],
      [
       100,
       39
      ],
      [
       104,
       38.5
      ],
      [
       108,
       40
      ],
      [
       112,
       41
      ],
      [
       116,
       42
      ],
      [
       120,
       42
      ],
      [
       124,
       42.5
      ],
      [
       126,
       41
      ],
      [
       124,
       39.5
      ],
      [
       121,
       37.5
      ],
      [
       122,
       36.8
      ],
      [
       119.5,
       35
      ],
      [
       120.5,
       34
      ],
      [
       118,
       33.2
      ],
      [
       115,
       32.7
      ],
      [
       112,
       33
      ],
      [
       109,
       33.5
      ],
      [
       106,
       33.8
      ],
      [
       104,
       34
      ],
      [
       102,
       35.5
      ],
      [
       99,
       37
      ],
      [
       95,
       38.5
      ],
      [
       95,
       40
      ]
     ]
    ]
   }
  },
  {
   "type": "Feature",
   "properties": {
    "civ": "shu-han",
    "from": 221,
    "to": 263,
    "precision": 1,
    "note": "coarse extent drawn by the site after Tan Qixiang's Historical Atlas of China; not a surveyed border"
   },
   "geometry": {
    "type": "Polygon",
    "coordinates": [
     [
      [
       103,
       34
      ],
      [
       106,
       33.7
      ],
      [
       109,
       33.2
      ],
      [
       110.5,
       32
      ],
      [
       110,
       30.5
      ],
      [
       109,
       29
      ],
      [
       108.5,
       27
      ],
      [
       109,
       25.5
      ],
      [
       107.5,
       24
      ],
      [
       104.5,
       22.5
      ],
      [
       101,
       22
      ],
      [
       98.5,
       24
      ],
      [
       98,
       27
      ],
      [
       99.5,
       29.5
      ],
      [
       101,
       32
      ],
      [
       103,
       34
      ]
     ]
    ]
   }
  },
  {
   "type": "Feature",
   "properties": {
    "civ": "eastern-wu",
    "from": 229,
    "to": 280,
    "precision": 1,
    "note": "coarse extent drawn by the site after Tan Qixiang's Historical Atlas of China; not a surveyed border"
   },
   "geometry": {
    "type": "Polygon",
    "coordinates": [
     [
      [
       110,
       30.5
      ],
      [
       112,
       31.5
      ],
      [
       114,
       32
      ],
      [
       116,
       32.5
      ],
      [
       118,
       33
      ],
      [
       120,
       34
      ],
      [
       121,
       32
      ],
      [
       121.5,
       30
      ],
      [
       121.5,
       28.5
      ],
      [
       120,
       27.5
      ],
      [
       119.5,
       26
      ],
      [
       118.5,
       24.5
      ],
      [
       116.5,
       23
      ],
      [
       114,
       22.2
      ],
      [
       111.5,
       21.5
      ],
      [
       109.5,
       21
      ],
      [
       108,
       21.3
      ],
      [
       106.5,
       20.5
      ],
      [
       105.5,
       18
      ],
      [
       104.8,
       19.5
      ],
      [
       105,
       21
      ],
      [
       106,
       22
      ],
      [
       107.5,
       24
      ],
      [
       109,
       25.5
      ],
      [
       108.5,
       27
      ],
      [
       109,
       29
      ],
      [
       110,
       30.5
      ]
     ]
    ]
   }
  },
  {
   "type": "Feature",
   "properties": {
    "civ": "eastern-wei",
    "from": 534,
    "to": 550,
    "precision": 1,
    "note": "coarse extent drawn by the site after Tan Qixiang's Historical Atlas of China; not a surveyed border"
   },
   "geometry": {
    "type": "Polygon",
    "coordinates": [
     [
      [
       111,
       40
      ],
      [
       113,
       41
      ],
      [
       116,
       42
      ],
      [
       120,
       42
      ],
      [
       124,
       42.5
      ],
      [
       126,
       41
      ],
      [
       124,
       39.5
      ],
      [
       121,
       37.5
      ],
      [
       122,
       36.8
      ],
      [
       119.5,
       35
      ],
      [
       120.5,
       34
      ],
      [
       118,
       33
      ],
      [
       115,
       32.5
      ],
      [
       112,
       32.2
      ],
      [
       111,
       33.5
      ],
      [
       110.5,
       35
      ],
      [
       111,
       37.5
      ],
      [
       111,
       40
      ]
     ]
    ]
   }
  },
  {
   "type": "Feature",
   "properties": {
    "civ": "northern-qi",
    "from": 550,
    "to": 577,
    "precision": 1,
    "note": "coarse extent drawn by the site after Tan Qixiang's Historical Atlas of China; not a surveyed border"
   },
   "geometry": {
    "type": "Polygon",
    "coordinates": [
     [
      [
       111,
       40
      ],
      [
       113,
       41
      ],
      [
       116,
       42
      ],
      [
       120,
       42
      ],
      [
       124,
       42.5
      ],
      [
       126,
       41
      ],
      [
       124,
       39.5
      ],
      [
       121,
       37.5
      ],
      [
       122,
       36.8
      ],
      [
       119.5,
       35
      ],
      [
       120.5,
       34
      ],
      [
       118,
       33
      ],
      [
       115,
       32.5
      ],
      [
       112,
       32.2
      ],
      [
       111,
       33.5
      ],
      [
       110.5,
       35
      ],
      [
       111,
       37.5
      ],
      [
       111,
       40
      ]
     ]
    ]
   }
  },
  {
   "type": "Feature",
   "properties": {
    "civ": "western-wei",
    "from": 535,
    "to": 557,
    "precision": 1,
    "note": "coarse extent drawn by the site after Tan Qixiang's Historical Atlas of China; not a surveyed border"
   },
   "geometry": {
    "type": "Polygon",
    "coordinates": [
     [
      [
       95,
       40
      ],
      [
       100,
       39
      ],
      [
       104,
       38.5
      ],
      [
       108,
       40
      ],
      [
       111,
       40
      ],
      [
       111,
       37.5
      ],
      [
       110.5,
       35
      ],
      [
       111,
       33.5
      ],
      [
       110,
       32.5
      ],
      [
       108,
       33
      ],
      [
       106,
       33.7
      ],
      [
       104,
       34
      ],
      [
       102,
       35.5
      ],
      [
       99,
       37
      ],
      [
       95,
       38.5
      ],
      [
       95,
       40
      ]
     ]
    ]
   }
  },
  {
   "type": "Feature",
   "properties": {
    "civ": "northern-zhou",
    "from": 557,
    "to": 577,
    "precision": 1,
    "note": "coarse extent drawn by the site after Tan Qixiang's Historical Atlas of China; not a surveyed border; with Sichuan and the west of Hubei, taken from the Liang in 553 and 554"
   },
   "geometry": {
    "type": "Polygon",
    "coordinates": [
     [
      [
       95,
       40
      ],
      [
       100,
       39
      ],
      [
       104,
       38.5
      ],
      [
       108,
       40
      ],
      [
       111,
       40
      ],
      [
       111,
       37.5
      ],
      [
       110.5,
       35
      ],
      [
       111,
       33.5
      ],
      [
       112,
       32.2
      ],
      [
       110.5,
       31.5
      ],
      [
       110,
       30.5
      ],
      [
       109,
       29
      ],
      [
       108.5,
       27
      ],
      [
       105,
       26
      ],
      [
       102,
       27
      ],
      [
       100,
       29
      ],
      [
       101,
       32
      ],
      [
       103,
       34
      ],
      [
       102,
       35.5
      ],
      [
       99,
       37
      ],
      [
       95,
       38.5
      ],
      [
       95,
       40
      ]
     ]
    ]
   }
  },
  {
   "type": "Feature",
   "properties": {
    "civ": "northern-zhou",
    "from": 577,
    "to": 581,
    "precision": 1,
    "note": "coarse extent drawn by the site after Tan Qixiang's Historical Atlas of China; not a surveyed border; the Northern Qi lands, taken in 577"
   },
   "geometry": {
    "type": "Polygon",
    "coordinates": [
     [
      [
       111,
       40
      ],
      [
       113,
       41
      ],
      [
       116,
       42
      ],
      [
       120,
       42
      ],
      [
       124,
       42.5
      ],
      [
       126,
       41
      ],
      [
       124,
       39.5
      ],
      [
       121,
       37.5
      ],
      [
       122,
       36.8
      ],
      [
       119.5,
       35
      ],
      [
       120.5,
       34
      ],
      [
       118,
       33
      ],
      [
       115,
       32.5
      ],
      [
       112,
       32.2
      ],
      [
       111,
       33.5
      ],
      [
       110.5,
       35
      ],
      [
       111,
       37.5
      ],
      [
       111,
       40
      ]
     ]
    ]
   }
  },
  {
   "type": "Feature",
   "properties": {
    "civ": "later-liang",
    "from": 907,
    "to": 923,
    "precision": 1,
    "note": "coarse extent drawn by the site after Tan Qixiang's Historical Atlas of China; not a surveyed border; without Shanxi, held by the rival Jin of Li Keyong"
   },
   "geometry": {
    "type": "Polygon",
    "coordinates": [
     [
      [
       105,
       33.5
      ],
      [
       108,
       35.5
      ],
      [
       110,
       36.5
      ],
      [
       113,
       36.5
      ],
      [
       115,
       38.5
      ],
      [
       118,
       38.5
      ],
      [
       120,
       37.5
      ],
      [
       122,
       37
      ],
      [
       119.5,
       35
      ],
      [
       120,
       34
      ],
      [
       118,
       33
      ],
      [
       115,
       32.5
      ],
      [
       112,
       32
      ],
      [
       110,
       32
      ],
      [
       108,
       33
      ],
      [
       105,
       33.5
      ]
     ]
    ]
   }
  },
  {
   "type": "Feature",
   "properties": {
    "civ": "later-tang",
    "from": 923,
    "to": 937,
    "precision": 1,
    "note": "coarse extent drawn by the site after Tan Qixiang's Historical Atlas of China; not a surveyed border"
   },
   "geometry": {
    "type": "Polygon",
    "coordinates": [
     [
      [
       102,
       35.5
      ],
      [
       104,
       38
      ],
      [
       108,
       40
      ],
      [
       112,
       41
      ],
      [
       116,
       41.5
      ],
      [
       119,
       41
      ],
      [
       121,
       40
      ],
      [
       118,
       39
      ],
      [
       121,
       37.5
      ],
      [
       122,
       36.8
      ],
      [
       119.5,
       35
      ],
      [
       120,
       34
      ],
      [
       118,
       33
      ],
      [
       115,
       32.5
      ],
      [
       112,
       32
      ],
      [
       110,
       32
      ],
      [
       108,
       33
      ],
      [
       105,
       33.5
      ],
      [
       102,
       35.5
      ]
     ]
    ]
   }
  },
  {
   "type": "Feature",
   "properties": {
    "civ": "later-jin-936",
    "from": 936,
    "to": 947,
    "precision": 1,
    "note": "coarse extent drawn by the site after Tan Qixiang's Historical Atlas of China; not a surveyed border; without the Sixteen Prefectures ceded to the Liao in 938"
   },
   "geometry": {
    "type": "Polygon",
    "coordinates": [
     [
      [
       102,
       35.5
      ],
      [
       104,
       38
      ],
      [
       108,
       40
      ],
      [
       112,
       40
      ],
      [
       116,
       40
      ],
      [
       118,
       39.5
      ],
      [
       121,
       37.5
      ],
      [
       122,
       36.8
      ],
      [
       119.5,
       35
      ],
      [
       120,
       34
      ],
      [
       118,
       33
      ],
      [
       115,
       32.5
      ],
      [
       112,
       32
      ],
      [
       110,
       32
      ],
      [
       108,
       33
      ],
      [
       105,
       33.5
      ],
      [
       102,
       35.5
      ]
     ]
    ]
   }
  },
  {
   "type": "Feature",
   "properties": {
    "civ": "later-han-947",
    "from": 947,
    "to": 951,
    "precision": 1,
    "note": "coarse extent drawn by the site after Tan Qixiang's Historical Atlas of China; not a surveyed border; without the Sixteen Prefectures"
   },
   "geometry": {
    "type": "Polygon",
    "coordinates": [
     [
      [
       102,
       35.5
      ],
      [
       104,
       38
      ],
      [
       108,
       40
      ],
      [
       112,
       40
      ],
      [
       116,
       40
      ],
      [
       118,
       39.5
      ],
      [
       121,
       37.5
      ],
      [
       122,
       36.8
      ],
      [
       119.5,
       35
      ],
      [
       120,
       34
      ],
      [
       118,
       33
      ],
      [
       115,
       32.5
      ],
      [
       112,
       32
      ],
      [
       110,
       32
      ],
      [
       108,
       33
      ],
      [
       105,
       33.5
      ],
      [
       102,
       35.5
      ]
     ]
    ]
   }
  },
  {
   "type": "Feature",
   "properties": {
    "civ": "later-zhou",
    "from": 951,
    "to": 960,
    "precision": 1,
    "note": "coarse extent drawn by the site after Tan Qixiang's Historical Atlas of China; not a surveyed border; without the Sixteen Prefectures"
   },
   "geometry": {
    "type": "Polygon",
    "coordinates": [
     [
      [
       102,
       35.5
      ],
      [
       104,
       38
      ],
      [
       108,
       40
      ],
      [
       112,
       40
      ],
      [
       116,
       40
      ],
      [
       118,
       39.5
      ],
      [
       121,
       37.5
      ],
      [
       122,
       36.8
      ],
      [
       119.5,
       35
      ],
      [
       120,
       34
      ],
      [
       118,
       33
      ],
      [
       115,
       32.5
      ],
      [
       112,
       32
      ],
      [
       110,
       32
      ],
      [
       108,
       33
      ],
      [
       105,
       33.5
      ],
      [
       102,
       35.5
      ]
     ]
    ]
   }
  }
 ]
}
