{"type":"FeatureCollection","features":[{"type":"Feature","properties":{"civ":"sumer","from":-3500,"to":-2334,"precision":1},"geometry":{"type":"Polygon","coordinates":[[[44,33.6],[45.6,34],[47.2,33],[48.3,31.2],[48.4,30.2],[47.6,29.8],[46.2,30.4],[44.8,31.4],[43.9,32.6],[44,33.6]]]}},{"type":"Feature","properties":{"civ":"egypt-old-kingdom","from":-2686,"to":-2181,"precision":1},"geometry":{"type":"Polygon","coordinates":[[[30.4,31.5],[31.2,31.7],[32.3,31.3],[32.5,30.6],[31.7,29.8],[31.5,28.8],[31.6,27.5],[32,26.3],[32.9,25.4],[33.2,24.2],[32.6,23.9],[32.3,24.9],[31.6,26.3],[31,27.6],[30.7,28.8],[30.6,29.9],[30.2,30.8],[30.4,31.5]]]}},{"type":"Feature","properties":{"civ":"akkadian-empire","from":-2334,"to":-2154,"precision":1},"geometry":{"type":"Polygon","coordinates":[[[38,37],[41,37.4],[44,37],[46.5,35.5],[48,33.5],[48.8,31],[48.4,29.8],[47,30],[45.5,31.4],[43.5,32.8],[41,34.5],[38.5,35.2],[37.5,36],[38,37]]]}},{"type":"Feature","properties":{"civ":"indus-valley","from":-2600,"to":-1900,"precision":1},"geometry":{"type":"Polygon","coordinates":[[[66.5,25],[67.5,27],[68.5,29.5],[70.5,31.5],[72.5,33],[74.5,32.5],[76.5,31],[77,29],[75.5,27.5],[73,25.5],[71.5,23.5],[69.5,22],[67.5,23.5],[66.5,25]]]}},{"type":"Feature","properties":{"civ":"shang-dynasty","from":-1600,"to":-1046,"precision":1},"geometry":{"type":"Polygon","coordinates":[[[110.5,36.5],[113,38],[116,38.5],[118.5,37.5],[119,35.5],[117.5,33.5],[115.5,32.5],[113,32.5],[111,33.5],[109.5,34.5],[110.5,36.5]]]}},{"type":"Feature","properties":{"civ":"kush","from":-1070,"to":350,"precision":1},"geometry":{"type":"Polygon","coordinates":[[[30,22.5],[33,22.5],[34,20],[34,17],[33.5,15],[31.5,15],[30.5,17],[30,19.5],[30,22.5]]]}},{"type":"Feature","properties":{"civ":"neo-assyrian-empire","from":-911,"to":-609,"precision":1},"geometry":{"type":"Polygon","coordinates":[[[33,37.5],[38,38.5],[42,39],[45,38],[47.5,35.5],[48.5,33],[48.5,30.5],[47.5,29.8],[45,30],[43,31.5],[39.5,32.5],[36,32],[34.5,31],[33,31.5],[34.5,33.5],[35.5,35],[34,36.5],[33,37.5]]]}},{"type":"Feature","properties":{"civ":"achaemenid-empire","from":-550,"to":-330,"precision":1},"geometry":{"type":"Polygon","coordinates":[[[23,41.5],[28,42],[35,41.5],[41,41.5],[48,41],[55,42],[62,44],[68,42],[71,39],[72,35],[71,31],[68,27],[66,25],[60,25.5],[57,26],[54,27],[50,29.5],[48.5,29.8],[44,31],[39,32],[35.5,29.5],[34,28.5],[32.5,24],[30.5,25],[29.5,30],[30.5,31.5],[33.5,31.5],[34.5,33.5],[36,36],[30,36.5],[27,37],[26,39],[23,41.5]]]}},{"type":"Feature","properties":{"civ":"macedonian-empire","from":-336,"to":-323,"precision":1},"geometry":{"type":"Polygon","coordinates":[[[19.5,40],[22.5,41.8],[26,42],[30,41.5],[36,41.5],[42,41.5],[48,40.5],[55,42],[62,44],[68,42],[71,39],[73,35],[72,30],[68,26],[66,24.8],[59,25.5],[54,26.5],[50,29.5],[48,30],[44,31],[39,32],[35.5,29.5],[34,28.5],[32.5,24],[30.5,25],[29.5,30],[30.5,31.5],[33.5,31.5],[35.5,35],[32,36.5],[27,37],[24,37.5],[21.5,37],[19.5,40]]]}},{"type":"Feature","properties":{"civ":"maurya-empire","from":-322,"to":-185,"precision":1},"geometry":{"type":"Polygon","coordinates":[[[66.5,25],[67,28.5],[70,32.5],[73.5,35],[77,34],[80,30.5],[85,28],[89.5,27],[92.5,25.5],[91,22.5],[87,21.5],[85,19.5],[82,17],[80,14],[78,13.5],[76,14.5],[74,16],[73,19],[71,21],[69,22.5],[67,23.5],[66.5,25]]]}},{"type":"Feature","properties":{"civ":"han-dynasty","from":-206,"to":220,"precision":1},"geometry":{"type":"Polygon","coordinates":[[[98,40.5],[104,41.5],[110,41],[116,42],[122,41.5],[125,40],[124.5,38.5],[121.5,37],[119.5,35],[121.5,31.5],[121,28.5],[118,24.5],[113,22],[108.5,21],[106,21.5],[105,23.5],[103,25.5],[101.5,27.5],[102.5,30.5],[103,33.5],[100,36.5],[96,38.5],[93.5,40.5],[98,40.5]]]}},{"type":"Feature","properties":{"civ":"roman-empire","from":-27,"to":395,"precision":1},"geometry":{"type":"MultiPolygon","coordinates":[[[[-9.5,37],[-9,43.5],[-4.5,43.5],[-1.5,46],[-1.5,48.5],[-4.5,48.5],[-1.5,49.5],[1.5,51],[-5.5,50],[-5.5,53.5],[-3,55.5],[0,54],[1.5,52.5],[4.5,52],[6.5,51.5],[8,49.5],[12.5,48.5],[16,48.5],[22,46],[26.5,45.5],[28.5,44.5],[28,43],[26,41.5],[24,40.5],[23,37],[21.5,36.5],[19.5,40.5],[18.5,42.5],[16.5,43.5],[14,45],[12.5,44.5],[15.5,40.5],[16,38],[15.5,37],[12.5,37.5],[13,38.5],[15.5,39],[12,42],[10.5,43.5],[9,44],[7.5,43.5],[5,43],[3,43],[3,42],[0,40.5],[-1.5,37.5],[-5.5,36],[-9.5,37]]],[[[26.5,40.5],[29,41.5],[33,42],[38,41],[41.5,41.5],[43.5,39.5],[42.5,37.5],[41,36.5],[39,34],[37.5,32],[35.5,30.5],[34.5,29.5],[34.5,31.5],[36,36.5],[32,36.5],[30.5,36.5],[27.5,37],[26.5,38.5],[26.5,40.5]]],[[[-6,35.5],[-2,35],[1,36.5],[6,37],[10.5,37.2],[11,35],[10,33],[13,32.5],[15.5,32],[20,32],[23,32.5],[25,31.5],[25,30],[20,30],[15,30.5],[11,31.5],[9,33.5],[7,34.5],[3,34],[-2,33.5],[-6,34],[-6,35.5]]],[[[25,31.5],[29.5,31],[32.5,31.3],[34.5,31.5],[34.5,29.5],[33,27.5],[33.5,24],[32.5,23.9],[31.8,25.5],[30.7,27.5],[28.5,30],[25,30],[25,31.5]]]]}},{"type":"Feature","properties":{"civ":"western-roman-empire","from":395,"to":476,"precision":1},"geometry":{"type":"MultiPolygon","coordinates":[[[[-9.5,37],[-9,43.5],[-4.5,43.5],[-1.5,46],[-1.5,48.5],[-4.5,48.5],[-1.5,49.5],[1.5,51],[-5.5,50],[-5.5,53.5],[-3,55.5],[0,54],[1.5,52.5],[4.5,52],[6.5,51.5],[8,49.5],[12.5,48.5],[16,48.5],[22,46],[26.5,45.5],[28.5,44.5],[28,43],[26,41.5],[24,40.5],[23,37],[21.5,36.5],[19.5,40.5],[18.5,42.5],[16.5,43.5],[14,45],[12.5,44.5],[15.5,40.5],[16,38],[15.5,37],[12.5,37.5],[13,38.5],[15.5,39],[12,42],[10.5,43.5],[9,44],[7.5,43.5],[5,43],[3,43],[3,42],[0,40.5],[-1.5,37.5],[-5.5,36],[-9.5,37]]],[[[-6,35.5],[-2,35],[1,36.5],[6,37],[10.5,37.2],[11,35],[10,33],[13,32.5],[15.5,32],[20,32],[23,32.5],[25,31.5],[25,30],[20,30],[15,30.5],[11,31.5],[9,33.5],[7,34.5],[3,34],[-2,33.5],[-6,34],[-6,35.5]]]]}},{"type":"Feature","properties":{"civ":"byzantine-empire","from":395,"to":640,"precision":1,"note":"before the Arab conquests of Syria and Egypt"},"geometry":{"type":"MultiPolygon","coordinates":[[[[19.5,40.5],[21,43],[24,44],[28.5,44.5],[28,43],[29,41.5],[33,42],[38,41],[41.5,41.5],[43.5,39.5],[42.5,37.5],[41,36.5],[39,34],[37.5,32],[35.5,30.5],[34.5,29.5],[34.5,31.5],[36,36.5],[32,36.5],[30.5,36.5],[27.5,37],[24,37],[21.5,37],[19.5,40.5]]],[[[25,31.5],[29.5,31],[32.5,31.3],[34.5,31.5],[34.5,29.5],[33,27.5],[33.5,24],[32.5,23.9],[31.8,25.5],[30.7,27.5],[28.5,30],[25,30],[25,31.5]]]]}},{"type":"Feature","properties":{"civ":"byzantine-empire","from":640,"to":1071,"precision":1,"note":"Balkans and Anatolia"},"geometry":{"type":"Polygon","coordinates":[[[19.5,40.5],[21,43],[24,44],[28.5,44.5],[28,43],[29,41.5],[33,42],[38,41],[41.5,41.5],[42.5,39],[40.5,37.5],[37,36.5],[36,36.5],[32,36.5],[30.5,36.5],[27.5,37],[24,37],[21.5,37],[19.5,40.5]]]}},{"type":"Feature","properties":{"civ":"byzantine-empire","from":1071,"to":1453,"precision":1,"note":"after Manzikert"},"geometry":{"type":"Polygon","coordinates":[[[22,40],[23.5,41.5],[26.5,41.8],[29,41.5],[31,41],[30,39.5],[28.5,38],[27.5,37],[26.5,38.5],[24,38],[22.5,38.5],[22,40]]]}},{"type":"Feature","properties":{"civ":"gupta-empire","from":320,"to":550,"precision":1},"geometry":{"type":"Polygon","coordinates":[[[72,22.5],[73.5,25.5],[76,29],[79,30],[83,27.5],[88,26.5],[90.5,24],[87.5,21.5],[84,19.5],[80.5,17.5],[77.5,19.5],[74.5,20.5],[72,22.5]]]}},{"type":"Feature","properties":{"civ":"aksum","from":100,"to":940,"precision":1},"geometry":{"type":"Polygon","coordinates":[[[36.5,17.5],[38.5,18.5],[40,16],[40.5,14],[39.5,12],[38,11],[37,12],[36.5,14.5],[36.5,17.5]]]}},{"type":"Feature","properties":{"civ":"maya-classic","from":250,"to":900,"precision":1},"geometry":{"type":"Polygon","coordinates":[[[-92.5,14.5],[-92,17.5],[-90.5,18.5],[-90,21.5],[-87,21.5],[-86.5,18.5],[-88.5,16],[-89.5,14.5],[-92.5,14.5]]]}},{"type":"Feature","properties":{"civ":"abbasid-caliphate","from":750,"to":945,"precision":1},"geometry":{"type":"Polygon","coordinates":[[[10,37],[10.5,33],[15,30],[25,30],[25,31.5],[32.5,31.5],[34.5,31.5],[36,36.5],[38,37.5],[42,39],[45,39.5],[48,40],[52,40],[56,42],[62,44],[68,42],[71,39],[72,35],[70,31],[68,27],[66.5,25],[60,25.5],[57,26.5],[54,26.5],[50.5,29.5],[48.5,29.8],[48,28],[50,26],[52,24],[56.5,25.5],[59.5,22.5],[57,19],[54,17],[49,14.5],[45,13],[43.5,13],[42.5,16],[39.5,21],[38.5,24.5],[36.5,27.5],[35,29],[33,28],[33.5,24],[32.5,23.9],[31.8,25.5],[30.7,27.5],[28,30],[20,30],[15,30.5],[11,31.5],[9,33.5],[7.5,36.5],[10,37]]]}},{"type":"Feature","properties":{"civ":"abbasid-caliphate","from":945,"to":1258,"precision":1,"note":"under Buyid and then Seljuk protection"},"geometry":{"type":"Polygon","coordinates":[[[42,35.5],[45,35],[47.5,33],[48.5,30.5],[47,30],[44.5,31.5],[43,33.5],[42,35.5]]]}},{"type":"Feature","properties":{"civ":"mongol-empire","from":1206,"to":1294,"precision":1},"geometry":{"type":"Polygon","coordinates":[[[20,50],[30,55],[45,57],[60,58],[80,56],[100,55],[120,54],[130,50],[135,45],[128,40],[122,37],[121,31],[118,24.5],[112,22],[106,21.5],[102,24],[100,28],[96,32],[90,30],[82,32],[76,35],[72,36],[66,36.5],[62,34],[60,29],[56,27],[50,30],[46,34],[44,37],[46,40],[42,42],[38,45],[33,46],[28,46.5],[24,47.5],[20,50]]]}},{"type":"Feature","properties":{"civ":"mali-empire","from":1235,"to":1468,"precision":1},"geometry":{"type":"Polygon","coordinates":[[[-17,15],[-16.5,17],[-13,17],[-8,17.5],[-4,17.5],[-1,17],[0.5,15.5],[-0.5,13.5],[-3,11.5],[-6,10.5],[-9,10],[-12,10.5],[-14,11.5],[-16,12.5],[-17,15]]]}},{"type":"Feature","properties":{"civ":"mali-empire","from":1468,"to":1600,"precision":1,"note":"after the loss of Timbuktu"},"geometry":{"type":"Polygon","coordinates":[[[-14,13.5],[-12,14.5],[-9.5,14],[-8,12.5],[-8.5,10.5],[-10.5,9.5],[-12.5,10.5],[-13.5,12],[-14,13.5]]]}},{"type":"Feature","properties":{"civ":"ming-dynasty","from":1368,"to":1644,"precision":1},"geometry":{"type":"Polygon","coordinates":[[[98,26],[100,30],[102.5,34],[104,37.5],[106,39.5],[110,41],[114,41.5],[118,42],[122,41.5],[125,41],[124.5,39.5],[121.5,37],[119.5,35],[121.5,31.5],[121,28.5],[118,24.5],[113,22],[108.5,21.5],[106,22.5],[103,23],[101,22.5],[98.5,24],[98,26]]]}},{"type":"Feature","properties":{"civ":"aztec-empire","from":1428,"to":1521,"precision":1},"geometry":{"type":"Polygon","coordinates":[[[-102,20],[-99.5,21.5],[-97.5,21],[-96,19.5],[-94.5,18.5],[-94.5,17.5],[-96.5,16],[-98.5,16.5],[-100.5,17],[-102.5,18],[-102.5,19.5],[-102,20]]]}},{"type":"Feature","properties":{"civ":"inca-empire","from":1438,"to":1533,"precision":1},"geometry":{"type":"Polygon","coordinates":[[[-80.5,-2.5],[-78,1.5],[-77,1],[-77.5,-2.5],[-76.5,-6],[-74,-11],[-70.5,-15],[-68,-19],[-67,-23],[-68.5,-27.5],[-70,-31],[-70.5,-35],[-72,-35],[-71.5,-30],[-71,-25],[-71,-20],[-75.5,-16],[-78,-11],[-80.5,-6],[-81,-4],[-80.5,-2.5]]]}},{"type":"Feature","properties":{"civ":"songhai-empire","from":1464,"to":1591,"precision":1},"geometry":{"type":"Polygon","coordinates":[[[-13.5,17],[-10,19],[-5,20],[-1,19],[2.5,17],[4.5,15.5],[3,13.5],[0.5,12],[-2,12.5],[-5,12],[-8,13],[-11.5,14],[-13.5,17]]]}},{"type":"Feature","properties":{"civ":"ottoman-empire","from":1299,"to":1453,"precision":1},"geometry":{"type":"Polygon","coordinates":[[[26.5,40],[28.5,41.5],[31,41.5],[33,40.5],[32,38.5],[29,37.5],[27,38.5],[26,39.5],[26.5,40]]]}},{"type":"Feature","properties":{"civ":"ottoman-empire","from":1453,"to":1699,"precision":1},"geometry":{"type":"MultiPolygon","coordinates":[[[[16,46.5],[19,48.5],[22,48],[26,48],[30,46.5],[34,46],[38,47],[40.5,44.5],[43.5,41.5],[44.5,39.5],[48,38.5],[47.5,34],[48.5,30.5],[48,29.5],[47,28.5],[44,28],[40,25],[38.5,24.5],[36.5,27.5],[34.5,29.5],[34.5,31.5],[36,36.5],[32,36.5],[27.5,37],[26.5,39],[23.5,37],[21.5,37],[19.5,40],[19,42.5],[16,44],[16,46.5]]],[[[25,31.5],[29.5,31],[32.5,31.3],[34.5,31.5],[34.5,29.5],[33,27.5],[33.5,24],[32.5,23.9],[31.8,25.5],[30.7,27.5],[28.5,30],[25,30],[25,31.5]]],[[[-2,35],[1,36.5],[6,37],[10.5,37.2],[11,35],[10,33],[13,32.5],[15.5,32],[20,32],[23,32.5],[25,31.5],[25,30],[20,30],[15,30.5],[11,31.5],[9,33.5],[7,34.5],[3,34],[-2,33.5],[-2,35]]]]}},{"type":"Feature","properties":{"civ":"ottoman-empire","from":1699,"to":1830,"precision":1,"note":"after the Treaty of Karlowitz"},"geometry":{"type":"MultiPolygon","coordinates":[[[[19,45.5],[22,46],[26,47.5],[30,46.5],[34,46],[38,47],[40.5,44.5],[43.5,41.5],[44.5,39.5],[48,38.5],[47.5,34],[48.5,30.5],[48,29.5],[47,28.5],[44,28],[40,25],[38.5,24.5],[36.5,27.5],[34.5,29.5],[34.5,31.5],[36,36.5],[32,36.5],[27.5,37],[26.5,39],[23.5,37],[21.5,37],[19.5,40],[19,42.5],[19,45.5]]],[[[25,31.5],[29.5,31],[32.5,31.3],[34.5,31.5],[34.5,29.5],[33,27.5],[33.5,24],[32.5,23.9],[31.8,25.5],[30.7,27.5],[28.5,30],[25,30],[25,31.5]]],[[[-2,35],[1,36.5],[6,37],[10.5,37.2],[11,35],[10,33],[13,32.5],[15.5,32],[20,32],[23,32.5],[25,31.5],[25,30],[20,30],[15,30.5],[11,31.5],[9,33.5],[7,34.5],[3,34],[-2,33.5],[-2,35]]]]}},{"type":"Feature","properties":{"civ":"ottoman-empire","from":1830,"to":1922,"precision":1,"note":"Anatolia, the Levant and Iraq"},"geometry":{"type":"Polygon","coordinates":[[[26,41.5],[29,41.5],[33,42],[38,41],[41.5,41.5],[43.5,39.5],[44.5,38],[47.5,34],[48.5,30.5],[48,29.5],[47,28.5],[44,28],[40,25],[38.5,24.5],[36.5,27.5],[34.5,29.5],[34.5,31.5],[36,36.5],[32,36.5],[27.5,37],[26.5,39],[26,41.5]]]}},{"type":"Feature","properties":{"civ":"mughal-empire","from":1526,"to":1690,"precision":1},"geometry":{"type":"Polygon","coordinates":[[[66.5,25],[67,28.5],[70,32.5],[73.5,35],[77,34.5],[80,30.5],[85,28],[89.5,27],[92.5,25.5],[91,22.5],[87,21.5],[84,21.5],[80,21],[76,20.5],[73,20.5],[71,21],[69,22.5],[67,23.5],[66.5,25]]]}},{"type":"Feature","properties":{"civ":"mughal-empire","from":1690,"to":1707,"precision":1,"note":"greatest extent under Aurangzeb"},"geometry":{"type":"Polygon","coordinates":[[[66.5,25],[67,28.5],[70,32.5],[73.5,35],[77,34.5],[80,30.5],[85,28],[89.5,27],[92.5,25.5],[91,22.5],[87,21.5],[85,19.5],[82,17],[80,14],[77,11.5],[75.5,12.5],[74,16],[73,19],[71,21],[69,22.5],[67,23.5],[66.5,25]]]}},{"type":"Feature","properties":{"civ":"mughal-empire","from":1707,"to":1857,"precision":1,"note":"the Delhi region"},"geometry":{"type":"Polygon","coordinates":[[[76,27.5],[77,29.5],[78.5,29.5],[79,28],[78,27],[76,27.5]]]}}]}